{"type": "FeatureCollection", "features": [{"type": "Feature", "geometry": {"type": "Point", "coordinates": [-58.4405459, -34.6230642]}, "properties": {"tipo_de_fiscalizador": "Anal\u00edtica de video"}}, {"type": "Feature", "geometry": {"type": "Point", "coordinates": [-58.4583156, -34.6040577]}, "properties": {"tipo_de_fiscalizador": "Anal\u00edtica de video"}}, {"type": "Feature", "geometry": {"type": "Point", "coordinates": [-58.4361597, -34.6179844]}, "properties": {"tipo_de_fiscalizador": "Anal\u00edtica de video"}}, {"type": "Feature", "geometry": {"type": "Point", "coordinates": [-58.3799732, -34.6201095]}, "properties": {"tipo_de_fiscalizador": "Anal\u00edtica de video"}}, {"type": "Feature", "geometry": {"type": "Point", "coordinates": [-58.448532, -34.5827315]}, "properties": {"tipo_de_fiscalizador": "Anal\u00edtica de video"}}, {"type": "Feature", "geometry": {"type": "Point", "coordinates": [-58.511763, -34.6394678]}, "properties": {"tipo_de_fiscalizador": "Anal\u00edtica de video"}}, {"type": "Feature", "geometry": {"type": "Point", "coordinates": [-58.429025, -34.61822]}, "properties": {"tipo_de_fiscalizador": "Anal\u00edtica de video"}}, {"type": "Feature", "geometry": {"type": "Point", "coordinates": [-58.4299651, -34.59468]}, "properties": {"tipo_de_fiscalizador": "Anal\u00edtica de video"}}, {"type": "Feature", "geometry": {"type": "Point", "coordinates": [-58.4287148, -34.5949669]}, "properties": {"tipo_de_fiscalizador": "Anal\u00edtica de video"}}, {"type": "Feature", "geometry": {"type": "Point", "coordinates": [-58.4564399, -34.6211717]}, "properties": {"tipo_de_fiscalizador": "Anal\u00edtica de video"}}, {"type": "Feature", "geometry": {"type": "Point", "coordinates": [-58.5033248, -34.5871007]}, "properties": {"tipo_de_fiscalizador": "Anal\u00edtica de video"}}, {"type": "Feature", "geometry": {"type": "Point", "coordinates": [-58.3695746, -34.6167221]}, "properties": {"tipo_de_fiscalizador": "Anal\u00edtica de video"}}, {"type": "Feature", "geometry": {"type": "Point", "coordinates": [-58.405921, -34.6372008]}, "properties": {"tipo_de_fiscalizador": "Anal\u00edtica de video"}}, {"type": "Feature", "geometry": {"type": "Point", "coordinates": [-58.4538156, -34.5655339]}, "properties": {"tipo_de_fiscalizador": "Anal\u00edtica de video"}}, {"type": "Feature", "geometry": {"type": "Point", "coordinates": [-58.4594855, -34.6137044]}, "properties": {"tipo_de_fiscalizador": "Anal\u00edtica de video"}}, {"type": "Feature", "geometry": {"type": "Point", "coordinates": [-58.4941256, -34.5947753]}, "properties": {"tipo_de_fiscalizador": "Anal\u00edtica de video"}}, {"type": "Feature", "geometry": {"type": "Point", "coordinates": [-58.4080931, -34.6043626]}, "properties": {"tipo_de_fiscalizador": "Anal\u00edtica de video"}}, {"type": "Feature", "geometry": {"type": "Point", "coordinates": [-58.3819691, -34.6116696]}, "properties": {"tipo_de_fiscalizador": "Anal\u00edtica de video"}}, {"type": "Feature", "geometry": {"type": "Point", "coordinates": [-58.4607644, -34.6896993]}, "properties": {"tipo_de_fiscalizador": "Anal\u00edtica de video"}}, {"type": "Feature", "geometry": {"type": "Point", "coordinates": [-58.47185, -34.626596]}, "properties": {"tipo_de_fiscalizador": "Anal\u00edtica de video"}}, {"type": "Feature", "geometry": {"type": "Point", "coordinates": [-58.3913006, -34.6183201]}, "properties": {"tipo_de_fiscalizador": "Anal\u00edtica de video"}}, {"type": "Feature", "geometry": {"type": "Point", "coordinates": [-58.405723, -34.604368]}, "properties": {"tipo_de_fiscalizador": "Anal\u00edtica de video"}}, {"type": "Feature", "geometry": {"type": "Point", "coordinates": [-58.4598168, -34.578286]}, "properties": {"tipo_de_fiscalizador": "Anal\u00edtica de video"}}, {"type": "Feature", "geometry": {"type": "Point", "coordinates": [-58.3818964, -34.6219603]}, "properties": {"tipo_de_fiscalizador": "Anal\u00edtica de video"}}, {"type": "Feature", "geometry": {"type": "Point", "coordinates": [-58.426036, -34.578466]}, "properties": {"tipo_de_fiscalizador": "Anal\u00edtica de video"}}, {"type": "Feature", "geometry": {"type": "Point", "coordinates": [-58.3706653, -34.6016026]}, "properties": {"tipo_de_fiscalizador": "Anal\u00edtica de video"}}, {"type": "Feature", "geometry": {"type": "Point", "coordinates": [-58.3821062, -34.6261863]}, "properties": {"tipo_de_fiscalizador": "Anal\u00edtica de video"}}, {"type": "Feature", "geometry": {"type": "Point", "coordinates": [-58.447969, -34.5915862]}, "properties": {"tipo_de_fiscalizador": "Anal\u00edtica de video"}}, {"type": "Feature", "geometry": {"type": "Point", "coordinates": [-58.3751466, -34.5923398]}, "properties": {"tipo_de_fiscalizador": "Anal\u00edtica de video"}}, {"type": "Feature", "geometry": {"type": "Point", "coordinates": [-58.4390869, -34.59987]}, "properties": {"tipo_de_fiscalizador": "Anal\u00edtica de video"}}, {"type": "Feature", "geometry": {"type": "Point", "coordinates": [-58.4741464, -34.5413779]}, "properties": {"tipo_de_fiscalizador": "Anal\u00edtica de video"}}, {"type": "Feature", "geometry": {"type": "Point", "coordinates": [-58.4700198, -34.6309456]}, "properties": {"tipo_de_fiscalizador": "Anal\u00edtica de video"}}, {"type": "Feature", "geometry": {"type": "Point", "coordinates": [-58.3968022, -34.587597]}, "properties": {"tipo_de_fiscalizador": "Anal\u00edtica de video"}}, {"type": "Feature", "geometry": {"type": "Point", "coordinates": [-58.4040057, -34.5941423]}, "properties": {"tipo_de_fiscalizador": "Anal\u00edtica de video"}}, {"type": "Feature", "geometry": {"type": "Point", "coordinates": [-58.411437, -34.6154775]}, "properties": {"tipo_de_fiscalizador": "Anal\u00edtica de video"}}, {"type": "Feature", "geometry": {"type": "Point", "coordinates": [-58.3956791, -34.618509]}, "properties": {"tipo_de_fiscalizador": "Anal\u00edtica de video"}}, {"type": "Feature", "geometry": {"type": "Point", "coordinates": [-58.4055978, -34.6098817]}, "properties": {"tipo_de_fiscalizador": "Anal\u00edtica de video"}}, {"type": "Feature", "geometry": {"type": "Point", "coordinates": [-58.4172216, -34.6547635]}, "properties": {"tipo_de_fiscalizador": "Anal\u00edtica de video"}}, {"type": "Feature", "geometry": {"type": "Point", "coordinates": [-58.3708745, -34.6125804]}, "properties": {"tipo_de_fiscalizador": "Anal\u00edtica de video"}}, {"type": "Feature", "geometry": {"type": "Point", "coordinates": [-58.4497814, -34.5590823]}, "properties": {"tipo_de_fiscalizador": "Anal\u00edtica de video"}}, {"type": "Feature", "geometry": {"type": "Point", "coordinates": [-58.3688407, -34.6128447]}, "properties": {"tipo_de_fiscalizador": "Anal\u00edtica de video"}}, {"type": "Feature", "geometry": {"type": "Point", "coordinates": [-58.4161493, -34.6550245]}, "properties": {"tipo_de_fiscalizador": "Anal\u00edtica de video"}}, {"type": "Feature", "geometry": {"type": "Point", "coordinates": [-58.4560335, -34.5606815]}, "properties": {"tipo_de_fiscalizador": "Anal\u00edtica de video"}}, {"type": "Feature", "geometry": {"type": "Point", "coordinates": [-58.4871991, -34.6376715]}, "properties": {"tipo_de_fiscalizador": "Anal\u00edtica de video"}}, {"type": "Feature", "geometry": {"type": "Point", "coordinates": [-58.3907567, -34.6295987]}, "properties": {"tipo_de_fiscalizador": "Anal\u00edtica de video"}}, {"type": "Feature", "geometry": {"type": "Point", "coordinates": [-58.4860639, -34.5441959]}, "properties": {"tipo_de_fiscalizador": "Anal\u00edtica de video"}}, {"type": "Feature", "geometry": {"type": "Point", "coordinates": [-58.3902949, -34.6272455]}, "properties": {"tipo_de_fiscalizador": "Anal\u00edtica de video"}}, {"type": "Feature", "geometry": {"type": "Point", "coordinates": [-58.5205847, -34.6460407]}, "properties": {"tipo_de_fiscalizador": "Anal\u00edtica de video"}}, {"type": "Feature", "geometry": {"type": "Point", "coordinates": [-58.3733901, -34.6464535]}, "properties": {"tipo_de_fiscalizador": "Anal\u00edtica de video"}}, {"type": "Feature", "geometry": {"type": "Point", "coordinates": [-58.459097, -34.627858]}, "properties": {"tipo_de_fiscalizador": "Anal\u00edtica de video"}}, {"type": "Feature", "geometry": {"type": "Point", "coordinates": [-58.4997174, -34.6376219]}, "properties": {"tipo_de_fiscalizador": "Anal\u00edtica de video"}}, {"type": "Feature", "geometry": {"type": "Point", "coordinates": [-58.46633, -34.6102978]}, "properties": {"tipo_de_fiscalizador": "Anal\u00edtica de video"}}, {"type": "Feature", "geometry": {"type": "Point", "coordinates": [-58.4457398, -34.5593889]}, "properties": {"tipo_de_fiscalizador": "Anal\u00edtica de video"}}, {"type": "Feature", "geometry": {"type": "Point", "coordinates": [-58.4385182, -34.6555379]}, "properties": {"tipo_de_fiscalizador": "Anal\u00edtica de video"}}, {"type": "Feature", "geometry": {"type": "Point", "coordinates": [-58.4545631, -34.6056573]}, "properties": {"tipo_de_fiscalizador": "Anal\u00edtica de video"}}, {"type": "Feature", "geometry": {"type": "Point", "coordinates": [-58.3894739, -34.6054907]}, "properties": {"tipo_de_fiscalizador": "Anal\u00edtica de video"}}, {"type": "Feature", "geometry": {"type": "Point", "coordinates": [-58.4220008, -34.5975841]}, "properties": {"tipo_de_fiscalizador": "Anal\u00edtica de video"}}, {"type": "Feature", "geometry": {"type": "Point", "coordinates": [-58.4042261, -34.6049096]}, "properties": {"tipo_de_fiscalizador": "Anal\u00edtica de video"}}, {"type": "Feature", "geometry": {"type": "Point", "coordinates": [-58.4339226, -34.5876234]}, "properties": {"tipo_de_fiscalizador": "Anal\u00edtica de video"}}, {"type": "Feature", "geometry": {"type": "Point", "coordinates": [-58.4435512, -34.5956916]}, "properties": {"tipo_de_fiscalizador": "Anal\u00edtica de video"}}, {"type": "Feature", "geometry": {"type": "Point", "coordinates": [-58.464171, -34.5703791]}, "properties": {"tipo_de_fiscalizador": "Anal\u00edtica de video"}}, {"type": "Feature", "geometry": {"type": "Point", "coordinates": [-58.416078, -34.60685]}, "properties": {"tipo_de_fiscalizador": "Anal\u00edtica de video"}}, {"type": "Feature", "geometry": {"type": "Point", "coordinates": [-58.462747, -34.632804]}, "properties": {"tipo_de_fiscalizador": "Anal\u00edtica de video"}}, {"type": "Feature", "geometry": {"type": "Point", "coordinates": [-58.5004982, -34.6499748]}, "properties": {"tipo_de_fiscalizador": "Anal\u00edtica de video"}}, {"type": "Feature", "geometry": {"type": "Point", "coordinates": [-58.423261, -34.625019]}, "properties": {"tipo_de_fiscalizador": "Anal\u00edtica de video"}}, {"type": "Feature", "geometry": {"type": "Point", "coordinates": [-58.478771, -34.6143711]}, "properties": {"tipo_de_fiscalizador": "Anal\u00edtica de video"}}, {"type": "Feature", "geometry": {"type": "Point", "coordinates": [-58.396973, -34.620659]}, "properties": {"tipo_de_fiscalizador": "Anal\u00edtica de video"}}, {"type": "Feature", "geometry": {"type": "Point", "coordinates": [-58.475799, -34.577348]}, "properties": {"tipo_de_fiscalizador": "Anal\u00edtica de video"}}, {"type": "Feature", "geometry": {"type": "Point", "coordinates": [-58.496832, -34.573406]}, "properties": {"tipo_de_fiscalizador": "Anal\u00edtica de video"}}, {"type": "Feature", "geometry": {"type": "Point", "coordinates": [-58.459456, -34.562029]}, "properties": {"tipo_de_fiscalizador": "Anal\u00edtica de video"}}, {"type": "Feature", "geometry": {"type": "Point", "coordinates": [-58.4404905, -34.6318031]}, "properties": {"tipo_de_fiscalizador": "Anal\u00edtica de video"}}, {"type": "Feature", "geometry": {"type": "Point", "coordinates": [-58.4544411, -34.6371471]}, "properties": {"tipo_de_fiscalizador": "Anal\u00edtica de video"}}, {"type": "Feature", "geometry": {"type": "Point", "coordinates": [-58.4912964, -34.641783]}, "properties": {"tipo_de_fiscalizador": "Anal\u00edtica de video"}}, {"type": "Feature", "geometry": {"type": "Point", "coordinates": [-58.5214248, -34.6367877]}, "properties": {"tipo_de_fiscalizador": "Anal\u00edtica de video"}}, {"type": "Feature", "geometry": {"type": "Point", "coordinates": [-58.4022056, -34.6261016]}, "properties": {"tipo_de_fiscalizador": "Anal\u00edtica de video"}}, {"type": "Feature", "geometry": {"type": "Point", "coordinates": [-58.393118, -34.598937]}, "properties": {"tipo_de_fiscalizador": "Anal\u00edtica de video"}}, {"type": "Feature", "geometry": {"type": "Point", "coordinates": [-58.380434, -34.626015]}, "properties": {"tipo_de_fiscalizador": "Anal\u00edtica de video"}}, {"type": "Feature", "geometry": {"type": "Point", "coordinates": [-58.4064799, -34.6074486]}, "properties": {"tipo_de_fiscalizador": "Anal\u00edtica de video"}}, {"type": "Feature", "geometry": {"type": "Point", "coordinates": [-58.381532, -34.6242234]}, "properties": {"tipo_de_fiscalizador": "Anal\u00edtica de video"}}, {"type": "Feature", "geometry": {"type": "Point", "coordinates": [-58.3950441, -34.6000849]}, "properties": {"tipo_de_fiscalizador": "Anal\u00edtica de video"}}, {"type": "Feature", "geometry": {"type": "Point", "coordinates": [-58.3915575, -34.6130065]}, "properties": {"tipo_de_fiscalizador": "Anal\u00edtica de video"}}, {"type": "Feature", "geometry": {"type": "Point", "coordinates": [-58.4411019, -34.619908]}, "properties": {"tipo_de_fiscalizador": "Anal\u00edtica de video"}}, {"type": "Feature", "geometry": {"type": "Point", "coordinates": [-58.4671364, -34.630363]}, "properties": {"tipo_de_fiscalizador": "Anal\u00edtica de video"}}, {"type": "Feature", "geometry": {"type": "Point", "coordinates": [-58.3737553, -34.6384136]}, "properties": {"tipo_de_fiscalizador": "Anal\u00edtica de video"}}, {"type": "Feature", "geometry": {"type": "Point", "coordinates": [-58.4552263, -34.5867518]}, "properties": {"tipo_de_fiscalizador": "Anal\u00edtica de video"}}, {"type": "Feature", "geometry": {"type": "Point", "coordinates": [-58.4543749, -34.5849407]}, "properties": {"tipo_de_fiscalizador": "Anal\u00edtica de video"}}, {"type": "Feature", "geometry": {"type": "Point", "coordinates": [-58.4453548, -34.5711632]}, "properties": {"tipo_de_fiscalizador": "Anal\u00edtica de video"}}, {"type": "Feature", "geometry": {"type": "Point", "coordinates": [-58.4044201, -34.6075053]}, "properties": {"tipo_de_fiscalizador": "Anal\u00edtica de video"}}, {"type": "Feature", "geometry": {"type": "Point", "coordinates": [-58.4021601, -34.603716]}, "properties": {"tipo_de_fiscalizador": "Anal\u00edtica de video"}}, {"type": "Feature", "geometry": {"type": "Point", "coordinates": [-58.4023757, -34.5941097]}, "properties": {"tipo_de_fiscalizador": "Anal\u00edtica de video"}}, {"type": "Feature", "geometry": {"type": "Point", "coordinates": [-58.3912392, -34.5909955]}, "properties": {"tipo_de_fiscalizador": "Anal\u00edtica de video"}}, {"type": "Feature", "geometry": {"type": "Point", "coordinates": [-58.4712749, -34.6267026]}, "properties": {"tipo_de_fiscalizador": "Anal\u00edtica de video"}}, {"type": "Feature", "geometry": {"type": "Point", "coordinates": [-58.4163128, -34.6250301]}, "properties": {"tipo_de_fiscalizador": "Anal\u00edtica de video"}}, {"type": "Feature", "geometry": {"type": "Point", "coordinates": [-58.4270191, -34.5924145]}, "properties": {"tipo_de_fiscalizador": "Anal\u00edtica de video"}}, {"type": "Feature", "geometry": {"type": "Point", "coordinates": [-58.4848347, -34.5754872]}, "properties": {"tipo_de_fiscalizador": "Anal\u00edtica de video"}}, {"type": "Feature", "geometry": {"type": "Point", "coordinates": [-58.43205, -34.637517]}, "properties": {"tipo_de_fiscalizador": "Cinem\u00f3metro"}}, {"type": "Feature", "geometry": {"type": "Point", "coordinates": [-58.479359, -34.677815]}, "properties": {"tipo_de_fiscalizador": "Cinem\u00f3metro"}}, {"type": "Feature", "geometry": {"type": "Point", "coordinates": [-58.379774, -34.62278]}, "properties": {"tipo_de_fiscalizador": "Cinem\u00f3metro"}}, {"type": "Feature", "geometry": {"type": "Point", "coordinates": [-58.374735, -34.647174]}, "properties": {"tipo_de_fiscalizador": "Cinem\u00f3metro"}}, {"type": "Feature", "geometry": {"type": "Point", "coordinates": [-58.37771, -34.634808]}, "properties": {"tipo_de_fiscalizador": "Cinem\u00f3metro"}}, {"type": "Feature", "geometry": {"type": "Point", "coordinates": [-58.428843, -34.558211]}, "properties": {"tipo_de_fiscalizador": "Cinem\u00f3metro"}}, {"type": "Feature", "geometry": {"type": "Point", "coordinates": [-58.448972, -34.541997]}, "properties": {"tipo_de_fiscalizador": "Cinem\u00f3metro"}}, {"type": "Feature", "geometry": {"type": "Point", "coordinates": [-58.448972, -34.541997]}, "properties": {"tipo_de_fiscalizador": "Cinem\u00f3metro"}}, {"type": "Feature", "geometry": {"type": "Point", "coordinates": [-58.474628, -34.667847]}, "properties": {"tipo_de_fiscalizador": "Cinem\u00f3metro"}}, {"type": "Feature", "geometry": {"type": "Point", "coordinates": [-58.428523, -34.598505]}, "properties": {"tipo_de_fiscalizador": "Cinem\u00f3metro"}}, {"type": "Feature", "geometry": {"type": "Point", "coordinates": [-58.39362, -34.627578]}, "properties": {"tipo_de_fiscalizador": "Cinem\u00f3metro"}}, {"type": "Feature", "geometry": {"type": "Point", "coordinates": [-58.448878, -34.635796]}, "properties": {"tipo_de_fiscalizador": "Cinem\u00f3metro"}}, {"type": "Feature", "geometry": {"type": "Point", "coordinates": [-58.509924, -34.649256]}, "properties": {"tipo_de_fiscalizador": "Cinem\u00f3metro"}}, {"type": "Feature", "geometry": {"type": "Point", "coordinates": [-58.449202, -34.542608]}, "properties": {"tipo_de_fiscalizador": "Cinem\u00f3metro"}}, {"type": "Feature", "geometry": {"type": "Point", "coordinates": [-58.479048, -34.677866]}, "properties": {"tipo_de_fiscalizador": "Cinem\u00f3metro"}}, {"type": "Feature", "geometry": {"type": "Point", "coordinates": [-58.438831, -34.548313]}, "properties": {"tipo_de_fiscalizador": "Cinem\u00f3metro"}}, {"type": "Feature", "geometry": {"type": "Point", "coordinates": [-58.487918, -34.646741]}, "properties": {"tipo_de_fiscalizador": "Cinem\u00f3metro"}}, {"type": "Feature", "geometry": {"type": "Point", "coordinates": [-58.481786, -34.642733]}, "properties": {"tipo_de_fiscalizador": "Cinem\u00f3metro"}}, {"type": "Feature", "geometry": {"type": "Point", "coordinates": [-58.479359, -34.677815]}, "properties": {"tipo_de_fiscalizador": "Cinem\u00f3metro"}}, {"type": "Feature", "geometry": {"type": "Point", "coordinates": [-58.521342, -34.624617]}, "properties": {"tipo_de_fiscalizador": "Cinem\u00f3metro"}}, {"type": "Feature", "geometry": {"type": "Point", "coordinates": [-58.492214, -34.560784]}, "properties": {"tipo_de_fiscalizador": "Cinem\u00f3metro"}}, {"type": "Feature", "geometry": {"type": "Point", "coordinates": [-58.456327, -34.698835]}, "properties": {"tipo_de_fiscalizador": "Cinem\u00f3metro"}}, {"type": "Feature", "geometry": {"type": "Point", "coordinates": [-58.456327, -34.698835]}, "properties": {"tipo_de_fiscalizador": "Cinem\u00f3metro"}}, {"type": "Feature", "geometry": {"type": "Point", "coordinates": [-58.381579, -34.582714]}, "properties": {"tipo_de_fiscalizador": "Cinem\u00f3metro"}}, {"type": "Feature", "geometry": {"type": "Point", "coordinates": [-58.407185, -34.567341]}, "properties": {"tipo_de_fiscalizador": "Cinem\u00f3metro"}}, {"type": "Feature", "geometry": {"type": "Point", "coordinates": [-58.407185, -34.567341]}, "properties": {"tipo_de_fiscalizador": "Cinem\u00f3metro"}}, {"type": "Feature", "geometry": {"type": "Point", "coordinates": [-58.486354, -34.645308]}, "properties": {"tipo_de_fiscalizador": "Cinem\u00f3metro"}}, {"type": "Feature", "geometry": {"type": "Point", "coordinates": [-58.486354, -34.645308]}, "properties": {"tipo_de_fiscalizador": "Cinem\u00f3metro"}}, {"type": "Feature", "geometry": {"type": "Point", "coordinates": [-58.379774, -34.62278]}, "properties": {"tipo_de_fiscalizador": "Cinem\u00f3metro"}}, {"type": "Feature", "geometry": {"type": "Point", "coordinates": [-58.381472, -34.582546]}, "properties": {"tipo_de_fiscalizador": "Cinem\u00f3metro"}}, {"type": "Feature", "geometry": {"type": "Point", "coordinates": [-58.374735, -34.647174]}, "properties": {"tipo_de_fiscalizador": "Cinem\u00f3metro"}}, {"type": "Feature", "geometry": {"type": "Point", "coordinates": [-58.41608, -34.56825]}, "properties": {"tipo_de_fiscalizador": "Cinem\u00f3metro"}}, {"type": "Feature", "geometry": {"type": "Point", "coordinates": [-58.515007, -34.639139]}, "properties": {"tipo_de_fiscalizador": "Cinem\u00f3metro"}}, {"type": "Feature", "geometry": {"type": "Point", "coordinates": [-58.440355, -34.562421]}, "properties": {"tipo_de_fiscalizador": "Cinem\u00f3metro"}}, {"type": "Feature", "geometry": {"type": "Point", "coordinates": [-58.379715, -34.622886]}, "properties": {"tipo_de_fiscalizador": "Cinem\u00f3metro"}}, {"type": "Feature", "geometry": {"type": "Point", "coordinates": [-58.503966, -34.587261]}, "properties": {"tipo_de_fiscalizador": "Cinem\u00f3metro"}}, {"type": "Feature", "geometry": {"type": "Point", "coordinates": [-58.410626, -34.57011]}, "properties": {"tipo_de_fiscalizador": "Cinem\u00f3metro"}}, {"type": "Feature", "geometry": {"type": "Point", "coordinates": [-58.400497, -34.62351]}, "properties": {"tipo_de_fiscalizador": "Cinem\u00f3metro"}}, {"type": "Feature", "geometry": {"type": "Point", "coordinates": [-58.512419, -34.634205]}, "properties": {"tipo_de_fiscalizador": "Cinem\u00f3metro"}}, {"type": "Feature", "geometry": {"type": "Point", "coordinates": [-58.403085, -34.618768]}, "properties": {"tipo_de_fiscalizador": "Cinem\u00f3metro"}}, {"type": "Feature", "geometry": {"type": "Point", "coordinates": [-58.49607, -34.560037]}, "properties": {"tipo_de_fiscalizador": "Cinem\u00f3metro"}}, {"type": "Feature", "geometry": {"type": "Point", "coordinates": [-58.403072, -34.623819]}, "properties": {"tipo_de_fiscalizador": "Cinem\u00f3metro"}}, {"type": "Feature", "geometry": {"type": "Point", "coordinates": [-58.413742, -34.615279]}, "properties": {"tipo_de_fiscalizador": "Cinem\u00f3metro"}}, {"type": "Feature", "geometry": {"type": "Point", "coordinates": [-58.428843, -34.558211]}, "properties": {"tipo_de_fiscalizador": "Cinem\u00f3metro"}}, {"type": "Feature", "geometry": {"type": "Point", "coordinates": [-58.484752, -34.646162]}, "properties": {"tipo_de_fiscalizador": "Cinem\u00f3metro"}}, {"type": "Feature", "geometry": {"type": "Point", "coordinates": [-58.484752, -34.646162]}, "properties": {"tipo_de_fiscalizador": "Cinem\u00f3metro"}}, {"type": "Feature", "geometry": {"type": "Point", "coordinates": [-58.499819, -34.635783]}, "properties": {"tipo_de_fiscalizador": "Cinem\u00f3metro"}}, {"type": "Feature", "geometry": {"type": "Point", "coordinates": [-58.499819, -34.635783]}, "properties": {"tipo_de_fiscalizador": "Cinem\u00f3metro"}}, {"type": "Feature", "geometry": {"type": "Point", "coordinates": [-58.37771, -34.634808]}, "properties": {"tipo_de_fiscalizador": "Cinem\u00f3metro"}}, {"type": "Feature", "geometry": {"type": "Point", "coordinates": [-58.448972, -34.541997]}, "properties": {"tipo_de_fiscalizador": "Cinem\u00f3metro"}}, {"type": "Feature", "geometry": {"type": "Point", "coordinates": [-58.474628, -34.667847]}, "properties": {"tipo_de_fiscalizador": "Cinem\u00f3metro"}}, {"type": "Feature", "geometry": {"type": "Point", "coordinates": [-58.428523, -34.598505]}, "properties": {"tipo_de_fiscalizador": "Cinem\u00f3metro"}}, {"type": "Feature", "geometry": {"type": "Point", "coordinates": [-58.39362, -34.627578]}, "properties": {"tipo_de_fiscalizador": "Cinem\u00f3metro"}}, {"type": "Feature", "geometry": {"type": "Point", "coordinates": [-58.467221, -34.635933]}, "properties": {"tipo_de_fiscalizador": "Cinem\u00f3metro"}}, {"type": "Feature", "geometry": {"type": "Point", "coordinates": [-58.400724, -34.631125]}, "properties": {"tipo_de_fiscalizador": "Cinem\u00f3metro"}}, {"type": "Feature", "geometry": {"type": "Point", "coordinates": [-58.463905, -34.587943]}, "properties": {"tipo_de_fiscalizador": "Cinem\u00f3metro"}}, {"type": "Feature", "geometry": {"type": "Point", "coordinates": [-58.443227, -34.683218]}, "properties": {"tipo_de_fiscalizador": "Cinem\u00f3metro"}}, {"type": "Feature", "geometry": {"type": "Point", "coordinates": [-58.469959, -34.636173]}, "properties": {"tipo_de_fiscalizador": "Cinem\u00f3metro"}}, {"type": "Feature", "geometry": {"type": "Point", "coordinates": [-58.504409, -34.567206]}, "properties": {"tipo_de_fiscalizador": "Cinem\u00f3metro"}}, {"type": "Feature", "geometry": {"type": "Point", "coordinates": [-58.449202, -34.542608]}, "properties": {"tipo_de_fiscalizador": "Cinem\u00f3metro"}}, {"type": "Feature", "geometry": {"type": "Point", "coordinates": [-58.449202, -34.542608]}, "properties": {"tipo_de_fiscalizador": "Cinem\u00f3metro"}}, {"type": "Feature", "geometry": {"type": "Point", "coordinates": [-58.479048, -34.677866]}, "properties": {"tipo_de_fiscalizador": "Cinem\u00f3metro"}}, {"type": "Feature", "geometry": {"type": "Point", "coordinates": [-58.495362, -34.562812]}, "properties": {"tipo_de_fiscalizador": "Cinem\u00f3metro"}}, {"type": "Feature", "geometry": {"type": "Point", "coordinates": [-58.379081, -34.627679]}, "properties": {"tipo_de_fiscalizador": "Cinem\u00f3metro"}}, {"type": "Feature", "geometry": {"type": "Point", "coordinates": [-58.527448, -34.6349]}, "properties": {"tipo_de_fiscalizador": "Cinem\u00f3metro"}}, {"type": "Feature", "geometry": {"type": "Point", "coordinates": [-58.461405, -34.54308]}, "properties": {"tipo_de_fiscalizador": "Cinem\u00f3metro"}}, {"type": "Feature", "geometry": {"type": "Point", "coordinates": [-58.480313, -34.590602]}, "properties": {"tipo_de_fiscalizador": "Cinem\u00f3metro"}}, {"type": "Feature", "geometry": {"type": "Point", "coordinates": [-58.426615, -34.552064]}, "properties": {"tipo_de_fiscalizador": "Cinem\u00f3metro"}}, {"type": "Feature", "geometry": {"type": "Point", "coordinates": [-58.391703, -34.5837]}, "properties": {"tipo_de_fiscalizador": "Cinem\u00f3metro"}}, {"type": "Feature", "geometry": {"type": "Point", "coordinates": [-58.445175, -34.559786]}, "properties": {"tipo_de_fiscalizador": "Cinem\u00f3metro"}}, {"type": "Feature", "geometry": {"type": "Point", "coordinates": [-58.454193, -34.611735]}, "properties": {"tipo_de_fiscalizador": "Cinem\u00f3metro"}}, {"type": "Feature", "geometry": {"type": "Point", "coordinates": [-58.413855, -34.5738]}, "properties": {"tipo_de_fiscalizador": "Cinem\u00f3metro"}}, {"type": "Feature", "geometry": {"type": "Point", "coordinates": [-58.425513, -34.571904]}, "properties": {"tipo_de_fiscalizador": "Cinem\u00f3metro"}}, {"type": "Feature", "geometry": {"type": "Point", "coordinates": [-58.393885, -34.629948]}, "properties": {"tipo_de_fiscalizador": "Cinem\u00f3metro"}}, {"type": "Feature", "geometry": {"type": "Point", "coordinates": [-58.486566, -34.557964]}, "properties": {"tipo_de_fiscalizador": "Cinem\u00f3metro"}}, {"type": "Feature", "geometry": {"type": "Point", "coordinates": [-58.376237, -34.622106]}, "properties": {"tipo_de_fiscalizador": "Cinem\u00f3metro"}}, {"type": "Feature", "geometry": {"type": "Point", "coordinates": [-58.438557, -34.547917]}, "properties": {"tipo_de_fiscalizador": "Cinem\u00f3metro"}}, {"type": "Feature", "geometry": {"type": "Point", "coordinates": [-58.376556, -34.64009]}, "properties": {"tipo_de_fiscalizador": "Cinem\u00f3metro"}}, {"type": "Feature", "geometry": {"type": "Point", "coordinates": [-58.474928, -34.667696]}, "properties": {"tipo_de_fiscalizador": "Cinem\u00f3metro"}}, {"type": "Feature", "geometry": {"type": "Point", "coordinates": [-58.459187, -34.537088]}, "properties": {"tipo_de_fiscalizador": "Cinem\u00f3metro"}}, {"type": "Feature", "geometry": {"type": "Point", "coordinates": [-58.459187, -34.537088]}, "properties": {"tipo_de_fiscalizador": "Cinem\u00f3metro"}}, {"type": "Feature", "geometry": {"type": "Point", "coordinates": [-58.459687, -34.537584]}, "properties": {"tipo_de_fiscalizador": "Cinem\u00f3metro"}}, {"type": "Feature", "geometry": {"type": "Point", "coordinates": [-58.459687, -34.537584]}, "properties": {"tipo_de_fiscalizador": "Cinem\u00f3metro"}}, {"type": "Feature", "geometry": {"type": "Point", "coordinates": [-58.438831, -34.548313]}, "properties": {"tipo_de_fiscalizador": "Cinem\u00f3metro"}}, {"type": "Feature", "geometry": {"type": "Point", "coordinates": [-58.438831, -34.548313]}, "properties": {"tipo_de_fiscalizador": "Cinem\u00f3metro"}}, {"type": "Feature", "geometry": {"type": "Point", "coordinates": [-58.415145, -34.563469]}, "properties": {"tipo_de_fiscalizador": "Cinem\u00f3metro"}}, {"type": "Feature", "geometry": {"type": "Point", "coordinates": [-58.503825, -34.573042]}, "properties": {"tipo_de_fiscalizador": "Cinem\u00f3metro"}}, {"type": "Feature", "geometry": {"type": "Point", "coordinates": [-58.415145, -34.563469]}, "properties": {"tipo_de_fiscalizador": "Cinem\u00f3metro"}}, {"type": "Feature", "geometry": {"type": "Point", "coordinates": [-58.464551, -34.647662]}, "properties": {"tipo_de_fiscalizador": "Cinem\u00f3metro"}}, {"type": "Feature", "geometry": {"type": "Point", "coordinates": [-58.420924, -34.566905]}, "properties": {"tipo_de_fiscalizador": "Cinem\u00f3metro"}}, {"type": "Feature", "geometry": {"type": "Point", "coordinates": [-58.420969, -34.56716]}, "properties": {"tipo_de_fiscalizador": "Cinem\u00f3metro"}}, {"type": "Feature", "geometry": {"type": "Point", "coordinates": [-58.49738, -34.554033]}, "properties": {"tipo_de_fiscalizador": "Cinem\u00f3metro"}}, {"type": "Feature", "geometry": {"type": "Point", "coordinates": [-58.474297, -34.541081]}, "properties": {"tipo_de_fiscalizador": "Cinem\u00f3metro"}}, {"type": "Feature", "geometry": {"type": "Point", "coordinates": [-58.419661, -34.597818]}, "properties": {"tipo_de_fiscalizador": "Cinem\u00f3metro"}}, {"type": "Feature", "geometry": {"type": "Point", "coordinates": [-58.445799, -34.624328]}, "properties": {"tipo_de_fiscalizador": "Cinem\u00f3metro"}}, {"type": "Feature", "geometry": {"type": "Point", "coordinates": [-58.42634, -34.628748]}, "properties": {"tipo_de_fiscalizador": "Cinem\u00f3metro"}}, {"type": "Feature", "geometry": {"type": "Point", "coordinates": [-58.392682, -34.623799]}, "properties": {"tipo_de_fiscalizador": "Cinem\u00f3metro"}}, {"type": "Feature", "geometry": {"type": "Point", "coordinates": [-58.392682, -34.623799]}, "properties": {"tipo_de_fiscalizador": "Cinem\u00f3metro"}}, {"type": "Feature", "geometry": {"type": "Point", "coordinates": [-58.42634, -34.628748]}, "properties": {"tipo_de_fiscalizador": "Cinem\u00f3metro"}}, {"type": "Feature", "geometry": {"type": "Point", "coordinates": [-58.501957, -34.553849]}, "properties": {"tipo_de_fiscalizador": "Cinem\u00f3metro"}}, {"type": "Feature", "geometry": {"type": "Point", "coordinates": [-58.501957, -34.553849]}, "properties": {"tipo_de_fiscalizador": "Cinem\u00f3metro"}}, {"type": "Feature", "geometry": {"type": "Point", "coordinates": [-58.523333, -34.599446]}, "properties": {"tipo_de_fiscalizador": "Cinem\u00f3metro"}}, {"type": "Feature", "geometry": {"type": "Point", "coordinates": [-58.523333, -34.599446]}, "properties": {"tipo_de_fiscalizador": "Cinem\u00f3metro"}}, {"type": "Feature", "geometry": {"type": "Point", "coordinates": [-58.514672, -34.664765]}, "properties": {"tipo_de_fiscalizador": "Cinem\u00f3metro"}}, {"type": "Feature", "geometry": {"type": "Point", "coordinates": [-58.475509, -34.694076]}, "properties": {"tipo_de_fiscalizador": "Cinem\u00f3metro"}}, {"type": "Feature", "geometry": {"type": "Point", "coordinates": [-58.530079, -34.629026]}, "properties": {"tipo_de_fiscalizador": "Cinem\u00f3metro"}}, {"type": "Feature", "geometry": {"type": "Point", "coordinates": [-58.530079, -34.629026]}, "properties": {"tipo_de_fiscalizador": "Cinem\u00f3metro"}}, {"type": "Feature", "geometry": {"type": "Point", "coordinates": [-58.501957, -34.553849]}, "properties": {"tipo_de_fiscalizador": "Cinem\u00f3metro"}}, {"type": "Feature", "geometry": {"type": "Point", "coordinates": [-58.501957, -34.553849]}, "properties": {"tipo_de_fiscalizador": "Cinem\u00f3metro"}}, {"type": "Feature", "geometry": {"type": "Point", "coordinates": [-58.41329, -34.626986]}, "properties": {"tipo_de_fiscalizador": "Cinem\u00f3metro"}}, {"type": "Feature", "geometry": {"type": "Point", "coordinates": [-58.41329, -34.626986]}, "properties": {"tipo_de_fiscalizador": "Cinem\u00f3metro"}}, {"type": "Feature", "geometry": {"type": "Point", "coordinates": [-58.39481, -34.624312]}, "properties": {"tipo_de_fiscalizador": "Cinem\u00f3metro"}}, {"type": "Feature", "geometry": {"type": "Point", "coordinates": [-58.39481, -34.624312]}, "properties": {"tipo_de_fiscalizador": "Cinem\u00f3metro"}}, {"type": "Feature", "geometry": {"type": "Point", "coordinates": [-58.389834, -34.618124]}, "properties": {"tipo_de_fiscalizador": "Cinem\u00f3metro"}}, {"type": "Feature", "geometry": {"type": "Point", "coordinates": [-58.445046, -34.595415]}, "properties": {"tipo_de_fiscalizador": "Cinem\u00f3metro"}}, {"type": "Feature", "geometry": {"type": "Point", "coordinates": [-58.41608, -34.56825]}, "properties": {"tipo_de_fiscalizador": "Cinem\u00f3metro"}}, {"type": "Feature", "geometry": {"type": "Point", "coordinates": [-58.500386, -34.673378]}, "properties": {"tipo_de_fiscalizador": "Cinem\u00f3metro"}}, {"type": "Feature", "geometry": {"type": "Point", "coordinates": [-58.414838, -34.608335]}, "properties": {"tipo_de_fiscalizador": "Cinem\u00f3metro"}}, {"type": "Feature", "geometry": {"type": "Point", "coordinates": [-58.366223, -34.614512]}, "properties": {"tipo_de_fiscalizador": "Cinem\u00f3metro"}}, {"type": "Feature", "geometry": {"type": "Point", "coordinates": [-58.366223, -34.614512]}, "properties": {"tipo_de_fiscalizador": "Cinem\u00f3metro"}}, {"type": "Feature", "geometry": {"type": "Point", "coordinates": [-58.382082, -34.579106]}, "properties": {"tipo_de_fiscalizador": "Cinem\u00f3metro"}}, {"type": "Feature", "geometry": {"type": "Point", "coordinates": [-58.382082, -34.579106]}, "properties": {"tipo_de_fiscalizador": "Cinem\u00f3metro"}}, {"type": "Feature", "geometry": {"type": "Point", "coordinates": [-58.379718, -34.608993]}, "properties": {"tipo_de_fiscalizador": "Cinem\u00f3metro"}}, {"type": "Feature", "geometry": {"type": "Point", "coordinates": [-58.481138, -34.564416]}, "properties": {"tipo_de_fiscalizador": "Cinem\u00f3metro"}}, {"type": "Feature", "geometry": {"type": "Point", "coordinates": [-58.457205, -34.594573]}, "properties": {"tipo_de_fiscalizador": "Cinem\u00f3metro"}}, {"type": "Feature", "geometry": {"type": "Point", "coordinates": [-58.413545, -34.636013]}, "properties": {"tipo_de_fiscalizador": "Cinem\u00f3metro"}}, {"type": "Feature", "geometry": {"type": "Point", "coordinates": [-58.451289, -34.600777]}, "properties": {"tipo_de_fiscalizador": "Cinem\u00f3metro"}}, {"type": "Feature", "geometry": {"type": "Point", "coordinates": [-58.439244, -34.62622]}, "properties": {"tipo_de_fiscalizador": "Cinem\u00f3metro"}}, {"type": "Feature", "geometry": {"type": "Point", "coordinates": [-58.464781, -34.588939]}, "properties": {"tipo_de_fiscalizador": "Cinem\u00f3metro"}}]}