{"type": "FeatureCollection", "features": [{"type": "Feature", "geometry": {"type": "Point", "coordinates": [-58.49101503190442, -34.550990102464745]}, "properties": {"nombre": "Comisar\u00eda Vecinal12-A (edificio anexo)", "barrio": "Saavedra", "comuna": 12}}, {"type": "Feature", "geometry": {"type": "Point", "coordinates": [-58.458307591055934, -34.6310563022503]}, "properties": {"nombre": "Comisar\u00eda Vecinal 7-A", "barrio": "Flores", "comuna": 7}}, {"type": "Feature", "geometry": {"type": "Point", "coordinates": [-58.45322168166576, -34.62038139407484]}, "properties": {"nombre": "Comisar\u00eda Vecinal 6-B", "barrio": "Caballito", "comuna": 6}}, {"type": "Feature", "geometry": {"type": "Point", "coordinates": [-58.415664541274616, -34.604406411773645]}, "properties": {"nombre": "Comisar\u00eda Vecinal 5-A", "barrio": "Almagro", "comuna": 5}}, {"type": "Feature", "geometry": {"type": "Point", "coordinates": [-58.40283281867738, -34.64194792387007]}, "properties": {"nombre": "Comisar\u00eda Vecinal 4-A", "barrio": "Parque Patricios", "comuna": 4}}, {"type": "Feature", "geometry": {"type": "Point", "coordinates": [-58.39367895264552, -34.614970908070276]}, "properties": {"nombre": "Comisar\u00eda Vecinal 3-C", "barrio": "Balvanera", "comuna": 3}}, {"type": "Feature", "geometry": {"type": "Point", "coordinates": [-58.39236199141657, -34.591136443178065]}, "properties": {"nombre": "Comisar\u00eda Vecinal 2-A", "barrio": "Recoleta", "comuna": 2}}, {"type": "Feature", "geometry": {"type": "Point", "coordinates": [-58.451074877939185, -34.590546220097984]}, "properties": {"nombre": "Comisar\u00eda Vecinal 15-A", "barrio": "Chacarita", "comuna": 15}}, {"type": "Feature", "geometry": {"type": "Point", "coordinates": [-58.41366150581631, -34.58126954919628]}, "properties": {"nombre": "Comisar\u00eda Vecinal 14-C", "barrio": "Palermo", "comuna": 14}}, {"type": "Feature", "geometry": {"type": "Point", "coordinates": [-58.47293895840077, -34.61102295837465]}, "properties": {"nombre": "Comisar\u00eda Vecinal 11-A", "barrio": "Villa Gral. Mitre", "comuna": 11}}, {"type": "Feature", "geometry": {"type": "Point", "coordinates": [-58.494099442703885, -34.63918663321706]}, "properties": {"nombre": "Comisar\u00eda Vecinal 10-C", "barrio": "Villa Luro", "comuna": 10}}, {"type": "Feature", "geometry": {"type": "Point", "coordinates": [-58.36958049572027, -34.58429865140957]}, "properties": {"nombre": "Comisar\u00eda Vecinal 1-A (edificio anexo I)", "barrio": "Retiro", "comuna": 1}}, {"type": "Feature", "geometry": {"type": "Point", "coordinates": [-58.47578919089627, -34.5731972491801]}, "properties": {"nombre": "Comisar\u00eda Comunal 13", "barrio": "Villa Urquiza", "comuna": 12}}, {"type": "Feature", "geometry": {"type": "Point", "coordinates": [-58.40311991984066, -34.62604808781184]}, "properties": {"nombre": "Comisar\u00eda Vecinal 3-B", "barrio": "San Cristobal", "comuna": 3}}, {"type": "Feature", "geometry": {"type": "Point", "coordinates": [-58.41610387118705, -34.58776786078862]}, "properties": {"nombre": "Comisar\u00eda Vecinal 14-A", "barrio": "Palermo", "comuna": 14}}, {"type": "Feature", "geometry": {"type": "Point", "coordinates": [-58.36540954049011, -34.623676756052674]}, "properties": {"nombre": "Comisar\u00eda Vecinal 1-E", "barrio": "Puerto Madero", "comuna": 1}}, {"type": "Feature", "geometry": {"type": "Point", "coordinates": [-58.36069524664056, -34.63410104469192]}, "properties": {"nombre": "Comisar\u00eda Vecinal 4-C", "barrio": "La Boca", "comuna": 4}}, {"type": "Feature", "geometry": {"type": "Point", "coordinates": [-58.37408849620005, -34.620236707869864]}, "properties": {"nombre": "Comisar\u00eda Vecinal 1-F", "barrio": "San Telmo", "comuna": 1}}, {"type": "Feature", "geometry": {"type": "Point", "coordinates": [-58.50118618349343, -34.661924211825074]}, "properties": {"nombre": "Comisar\u00eda Vecinal 9-A", "barrio": "Mataderos", "comuna": 9}}, {"type": "Feature", "geometry": {"type": "Point", "coordinates": [-58.458307591055934, -34.6310563022503]}, "properties": {"nombre": "Comisar\u00eda Comunal 7", "barrio": "Flores", "comuna": 7}}, {"type": "Feature", "geometry": {"type": "Point", "coordinates": [-58.40086114781002, -34.63640427680307]}, "properties": {"nombre": "Comisaria Vecinal 4-A (edificio anexo)", "barrio": "Parque Patricios", "comuna": 4}}, {"type": "Feature", "geometry": {"type": "Point", "coordinates": [-58.45132792000443, -34.59047448311428]}, "properties": {"nombre": "Comisar\u00eda Vecinal 15-C", "barrio": "Chacarita", "comuna": 15}}, {"type": "Feature", "geometry": {"type": "Point", "coordinates": [-58.52755284084778, -34.63489634508499]}, "properties": {"nombre": "Comisar\u00eda Vecinal 9-B", "barrio": "Liniers", "comuna": 9}}, {"type": "Feature", "geometry": {"type": "Point", "coordinates": [-58.49101503190442, -34.550990102464745]}, "properties": {"nombre": "Comisar\u00eda Comunal 12", "barrio": "Saavedra", "comuna": 12}}, {"type": "Feature", "geometry": {"type": "Point", "coordinates": [-58.451074877939185, -34.590546220097984]}, "properties": {"nombre": "Comisar\u00eda Comunal 15", "barrio": "Chacarita", "comuna": 15}}, {"type": "Feature", "geometry": {"type": "Point", "coordinates": [-58.40283281867738, -34.64194792387007]}, "properties": {"nombre": "Comisar\u00eda Comunal 4", "barrio": "Parque Patricios", "comuna": 4}}, {"type": "Feature", "geometry": {"type": "Point", "coordinates": [-58.494099442703885, -34.63918663321706]}, "properties": {"nombre": "Comisar\u00eda Comunal 10", "barrio": "Villa Luro", "comuna": 10}}, {"type": "Feature", "geometry": {"type": "Point", "coordinates": [-58.52751592037157, -34.63487596001541]}, "properties": {"nombre": "Comisaria Comunal 9", "barrio": "Liniers", "comuna": 9}}, {"type": "Feature", "geometry": {"type": "Point", "coordinates": [-58.431835553573045, -34.66041800036428]}, "properties": {"nombre": "Comisar\u00eda Vecinal 8-B (edificio anexo I)", "barrio": "Villa Soldati", "comuna": 8}}, {"type": "Feature", "geometry": {"type": "Point", "coordinates": [-58.39072173330163, -34.62254103571925]}, "properties": {"nombre": "Comisar\u00eda Vecinal 1-C", "barrio": "Constitucion", "comuna": 1}}, {"type": "Feature", "geometry": {"type": "Point", "coordinates": [-58.38572834729359, -34.62292577857168]}, "properties": {"nombre": "Comisar\u00eda Vecinal 1-C (edificio anexo)", "barrio": "Constitucion", "comuna": 1}}, {"type": "Feature", "geometry": {"type": "Point", "coordinates": [-58.45322168166576, -34.62038139407484]}, "properties": {"nombre": "Comisar\u00eda Comunal 6", "barrio": "Caballito", "comuna": 6}}, {"type": "Feature", "geometry": {"type": "Point", "coordinates": [-58.36958049572027, -34.58429865140957]}, "properties": {"nombre": "Comisar\u00eda Comunal 1", "barrio": "Retiro", "comuna": 1}}, {"type": "Feature", "geometry": {"type": "Point", "coordinates": [-58.39236199141657, -34.591136443178065]}, "properties": {"nombre": "Comisar\u00eda Comunal 2", "barrio": "Recoleta", "comuna": 2}}, {"type": "Feature", "geometry": {"type": "Point", "coordinates": [-58.37324885578176, -34.60190533346012]}, "properties": {"nombre": "Comisar\u00eda Vecinal 1-D", "barrio": "San Nicolas", "comuna": 1}}, {"type": "Feature", "geometry": {"type": "Point", "coordinates": [-58.42492801152498, -34.62863984277676]}, "properties": {"nombre": "Comisar\u00eda Vecinal 5-B", "barrio": "Boedo", "comuna": 5}}, {"type": "Feature", "geometry": {"type": "Point", "coordinates": [-58.43950273257121, -34.608977891300256]}, "properties": {"nombre": "Comisar\u00eda Vecinal 6-A", "barrio": "Caballito", "comuna": 6}}, {"type": "Feature", "geometry": {"type": "Point", "coordinates": [-58.448088022379274, -34.62677886954029]}, "properties": {"nombre": "Comisar\u00eda Vecinal 7-B", "barrio": "Caballito", "comuna": 6}}, {"type": "Feature", "geometry": {"type": "Point", "coordinates": [-58.406722080262135, -34.5940780229934]}, "properties": {"nombre": "Comisar\u00eda Vecinal 2-B", "barrio": "Recoleta", "comuna": 2}}, {"type": "Feature", "geometry": {"type": "Point", "coordinates": [-58.48252524827416, -34.565145629242174]}, "properties": {"nombre": "Comisar\u00eda Vecinal 12-A", "barrio": "Villa Urquiza", "comuna": 12}}, {"type": "Feature", "geometry": {"type": "Point", "coordinates": [-58.44108560356735, -34.59932010840561]}, "properties": {"nombre": "Comisar\u00eda Vecinal 15-B", "barrio": "Villa Crespo", "comuna": 15}}, {"type": "Feature", "geometry": {"type": "Point", "coordinates": [-58.417157992360934, -34.64479313618811]}, "properties": {"nombre": "Comisar\u00eda Vecinal 4-B", "barrio": "Nueva Pompeya", "comuna": 4}}, {"type": "Feature", "geometry": {"type": "Point", "coordinates": [-58.454267122981484, -34.67735534617036]}, "properties": {"nombre": "Comisar\u00eda Vecinal 8-B", "barrio": "Villa Lugano", "comuna": 8}}, {"type": "Feature", "geometry": {"type": "Point", "coordinates": [-58.37858130354149, -34.617160446937426]}, "properties": {"nombre": "Comisar\u00eda Vecinal 1-B", "barrio": "Monserrat", "comuna": 1}}, {"type": "Feature", "geometry": {"type": "Point", "coordinates": [-58.476336219370545, -34.64146107167717]}, "properties": {"nombre": "Comisar\u00eda Vecinal 9-C", "barrio": "Parque Avellaneda", "comuna": 9}}, {"type": "Feature", "geometry": {"type": "Point", "coordinates": [-58.51560404631523, -34.59831458730553]}, "properties": {"nombre": "Comisar\u00eda Vecinal 11-B", "barrio": "Villa Devoto", "comuna": 11}}, {"type": "Feature", "geometry": {"type": "Point", "coordinates": [-58.49936617057593, -34.58971288961547]}, "properties": {"nombre": "Comisar\u00eda Vecinal 12-B (edificio anexo I)", "barrio": "Villa Pueyrredon", "comuna": 12}}, {"type": "Feature", "geometry": {"type": "Point", "coordinates": [-58.474888158101265, -34.67903291493464]}, "properties": {"nombre": "Comisar\u00eda Vecinal 8-A", "barrio": "Villa Lugano", "comuna": 8}}, {"type": "Feature", "geometry": {"type": "Point", "coordinates": [-58.374858359482914, -34.63822092897085]}, "properties": {"nombre": "Comisar\u00eda Vecinal 4-E", "barrio": "Barracas", "comuna": 4}}, {"type": "Feature", "geometry": {"type": "Point", "coordinates": [-58.37478987747005, -34.6471488978436]}, "properties": {"nombre": "Comisar\u00eda Vecinal 4-D", "barrio": "Barracas", "comuna": 4}}, {"type": "Feature", "geometry": {"type": "Point", "coordinates": [-58.43904957050002, -34.573257038631915]}, "properties": {"nombre": "Comisar\u00eda Vecinal 14-B", "barrio": "Palermo", "comuna": 14}}, {"type": "Feature", "geometry": {"type": "Point", "coordinates": [-58.45609733440254, -34.56014527431079]}, "properties": {"nombre": "Comisar\u00eda Vecinal 13-C", "barrio": "Belgrano", "comuna": 13}}, {"type": "Feature", "geometry": {"type": "Point", "coordinates": [-58.463543639788206, -34.5512909001547]}, "properties": {"nombre": "Comisar\u00eda Vecinal 13-B", "barrio": "Nu\u00f1ez", "comuna": 13}}, {"type": "Feature", "geometry": {"type": "Point", "coordinates": [-58.49009267264174, -34.57877677036396]}, "properties": {"nombre": "Comisar\u00eda Vecinal 12-B", "barrio": "Villa Urquiza", "comuna": 12}}, {"type": "Feature", "geometry": {"type": "Point", "coordinates": [-58.523901986041395, -34.629562799536316]}, "properties": {"nombre": "Comisar\u00eda Vecinal 10-B", "barrio": "Versalles", "comuna": 10}}, {"type": "Feature", "geometry": {"type": "Point", "coordinates": [-58.38003952667834, -34.594643162499665]}, "properties": {"nombre": "Comisar\u00eda Vecinal 1-A", "barrio": "Retiro", "comuna": 1}}, {"type": "Feature", "geometry": {"type": "Point", "coordinates": [-58.47578919089627, -34.5731972491801]}, "properties": {"nombre": "Comisar\u00eda Vecinal 12-C", "barrio": "Villa Urquiza", "comuna": 12}}, {"type": "Feature", "geometry": {"type": "Point", "coordinates": [-58.47293895840077, -34.61102295837465]}, "properties": {"nombre": "Comisar\u00eda Comunal 11", "barrio": "Villa Gral. Mitre", "comuna": 11}}, {"type": "Feature", "geometry": {"type": "Point", "coordinates": [-58.48377879857752, -34.62880577190448]}, "properties": {"nombre": "Comisar\u00eda Vecinal 10-A", "barrio": "Floresta", "comuna": 10}}, {"type": "Feature", "geometry": {"type": "Point", "coordinates": [-58.46482110249305, -34.61611299874862]}, "properties": {"nombre": "Comisar\u00eda Vecinal 7-C", "barrio": "Flores", "comuna": 7}}, {"type": "Feature", "geometry": {"type": "Point", "coordinates": [-58.50508483847855, -34.639965860505626]}, "properties": {"nombre": "Comisar\u00eda Vecinal 10-C", "barrio": "Villa Luro", "comuna": 10}}, {"type": "Feature", "geometry": {"type": "Point", "coordinates": [-58.40928216463775, -34.61705659478637]}, "properties": {"nombre": "Comisar\u00eda Vecinal 3-A (edificio anexo)", "barrio": "Balvanera", "comuna": 3}}, {"type": "Feature", "geometry": {"type": "Point", "coordinates": [-58.444131059406836, -34.55488835516263]}, "properties": {"nombre": "Comisar\u00eda Vecinal 13-A", "barrio": "Belgrano", "comuna": 13}}, {"type": "Feature", "geometry": {"type": "Point", "coordinates": [-58.468969318089265, -34.68309883885219]}, "properties": {"nombre": "Comisar\u00eda Vecinal 8-C", "barrio": "Villa Lugano", "comuna": 8}}, {"type": "Feature", "geometry": {"type": "Point", "coordinates": [-58.38890886319144, -34.60192349060992]}, "properties": {"nombre": "Comisaria Vecinal 1-A (edificio anexo II)", "barrio": "San Nicolas", "comuna": 1}}, {"type": "Feature", "geometry": {"type": "Point", "coordinates": [-58.42760256512527, -34.59249343857936]}, "properties": {"nombre": "Comisaria Vecinal 14-A (edificio anexo)", "barrio": "Palermo", "comuna": 14}}, {"type": "Feature", "geometry": {"type": "Point", "coordinates": [-58.455378659756576, -34.67303346585819]}, "properties": {"nombre": "Comisaria Comunal 8", "barrio": "Villa Soldati", "comuna": 8}}, {"type": "Feature", "geometry": {"type": "Point", "coordinates": [-58.40407720431502, -34.60329113019939]}, "properties": {"nombre": "Comisar\u00eda Vecinal 3-A", "barrio": "Balvanera", "comuna": 3}}, {"type": "Feature", "geometry": {"type": "Point", "coordinates": [-58.39367592639254, -34.615008346785075]}, "properties": {"nombre": "Comisar\u00eda Comunal 3", "barrio": "Balvanera", "comuna": 3}}, {"type": "Feature", "geometry": {"type": "Point", "coordinates": [-58.41366150581631, -34.58126954919628]}, "properties": {"nombre": "Comisar\u00eda Comunal 14", "barrio": "Palermo", "comuna": 14}}, {"type": "Feature", "geometry": {"type": "Point", "coordinates": [-58.415664541274616, -34.604406411773645]}, "properties": {"nombre": "Comisar\u00eda Comunal 5", "barrio": "Almagro", "comuna": 5}}, {"type": "Feature", "geometry": {"type": "Point", "coordinates": [-58.37272314184262, -34.60339778867843]}, "properties": {"nombre": "Comisar\u00eda Comunal 1 Norte", "barrio": "San Nicolas", "comuna": 1}}, {"type": "Feature", "geometry": {"type": "Point", "coordinates": [-58.37400376134853, -34.62026507730856]}, "properties": {"nombre": "Comisar\u00eda Comunal 1 Sur", "barrio": "San Telmo", "comuna": 1}}, {"type": "Feature", "geometry": {"type": "Point", "coordinates": [-58.394768079033724, -34.60334522895158]}, "properties": {"nombre": "Comisar\u00eda Vecinal 3-C (anexo I)", "barrio": "Balvanera", "comuna": 3}}, {"type": "Feature", "geometry": {"type": "Point", "coordinates": [-58.420124506242104, -34.58255196829385]}, "properties": {"nombre": "Comisar\u00eda Vecinal 14-A (edificio anexo II)", "barrio": "Palermo", "comuna": 14}}]}