{"type": "FeatureCollection", "features": [{"type": "Feature", "geometry": {"type": "Polygon", "coordinates": [[[-58.44904676119445, -34.567859827048814], [-58.44364228945086, -34.570569765836325], [-58.44074720899485, -34.57211211395189], [-58.44397422558434, -34.575370125943124], [-58.441816755510914, -34.576823667235594], [-58.44089118052464, -34.57780218157721], [-58.43994155146995, -34.5785526522915], [-58.44343418819475, -34.581802697597084], [-58.44445103343923, -34.583176475673376], [-58.44828194510704, -34.58152986280973], [-58.45101979374113, -34.580481486818364], [-58.45540130883452, -34.57907626071817], [-58.45774560318248, -34.578443843297876], [-58.46022666634013, -34.578301110897925], [-58.463188835027395, -34.575111026455005], [-58.46736584353383, -34.57250216497175], [-58.46808280219982, -34.57291482378605], [-58.473369827681005, -34.56666768335336], [-58.47065128779516, -34.56501108137426], [-58.46765055842208, -34.563054352418995], [-58.46649186218607, -34.56219648199534], [-58.46768555987636, -34.561693617501696], [-58.46703884337077, -34.56132137710532], [-58.47087360351467, -34.557036526429535], [-58.47443734115173, -34.55242741425036], [-58.46819097058801, -34.54894654457668], [-58.47043250710375, -34.54607263202276], [-58.475954554668476, -34.53863739298881], [-58.46379760134568, -34.53326775010111], [-58.46107289342538, -34.53013796743443], [-58.46049761486628, -34.529085369438526], [-58.45950666937961, -34.52783738241708], [-58.45947505632855, -34.52745576326602], [-58.45925381320549, -34.52715193615235], [-58.45870815042106, -34.52675584146], [-58.45819657844101, -34.52656156766544], [-58.45743218082799, -34.52651922185218], [-58.45655732507341, -34.52683650017718], [-58.455558958383456, -34.52745140511188], [-58.45404996228834, -34.52930531075897], [-58.45195093067193, -34.53002073233169], [-58.451666079661024, -34.53042603794619], [-58.452042396022506, -34.53116880840965], [-58.452700398586465, -34.53203162638408], [-58.45451982873735, -34.53475162577327], [-58.45496648619892, -34.53527636720969], [-58.45884718742898, -34.537127938593386], [-58.45855970876752, -34.53732575059548], [-58.456265276460016, -34.53633849543429], [-58.45386545717745, -34.535044987740655], [-58.453686547230014, -34.53481707370583], [-58.45347180646244, -34.53427114294332], [-58.4524365607959, -34.532751859364886], [-58.45206123850385, -34.531999490612634], [-58.45177030523751, -34.53171052690886], [-58.45136365920483, -34.53171744765763], [-58.45094343622369, -34.531950873702904], [-58.45079399183235, -34.53216245266208], [-58.45067898308176, -34.53293828606019], [-58.4501415515746, -34.534123870646994], [-58.44996447156508, -34.535086292029625], [-58.45013619280387, -34.535371630901146], [-58.4507531846201, -34.53567334026318], [-58.45167656916144, -34.535639830972734], [-58.45300342510745, -34.53575093054585], [-58.45407181828169, -34.53653976624227], [-58.45483617470599, -34.537446594462054], [-58.4546295261159, -34.53811973945052], [-58.45408617314288, -34.53879108866282], [-58.45278913137589, -34.539430175507206], [-58.45235755763741, -34.5395810282165], [-58.45217041798593, -34.53956419510006], [-58.45191080051476, -34.5392036120799], [-58.45193198381143, -34.538991754201184], [-58.45129523630593, -34.538376025389304], [-58.45119491811977, -34.5381489078883], [-58.45046336665105, -34.537812920963056], [-58.449880080157484, -34.53736245066019], [-58.44988015669943, -34.53688544178202], [-58.45003224195555, -34.536120734024166], [-58.44906714077152, -34.53555990218353], [-58.448901596217134, -34.53557803852159], [-58.44877987892303, -34.535711733528494], [-58.448800336686844, -34.535817431570734], [-58.44932781646191, -34.53615438163911], [-58.449395178824744, -34.53632177623105], [-58.448699271632336, -34.537223176487664], [-58.44869436367218, -34.53735200132489], [-58.448567984279904, -34.53740071123808], [-58.448356069536416, -34.53733761230665], [-58.44797060465986, -34.53699163645656], [-58.447948944311904, -34.53676554019763], [-58.44763455191621, -34.53649911632533], [-58.44638441809379, -34.53600964688377], [-58.44537022202538, -34.536023816033634], [-58.44418644576077, -34.536279056349294], [-58.44364618871658, -34.53631475654609], [-58.443863687174854, -34.53614484618917], [-58.44281706565485, -34.536759539149216], [-58.442288622886885, -34.53730122794152], [-58.44219341552695, -34.53726289526333], [-58.442289587779236, -34.5370332702859], [-58.44176501110901, -34.53790533038178], [-58.441562299555464, -34.53787072996937], [-58.441584261129016, -34.537626475622886], [-58.44132724413364, -34.53857648365801], [-58.44112149304502, -34.53858301159086], [-58.4410779699716, -34.53834045817414], [-58.441098778340525, -34.53914284424513], [-58.44083679505553, -34.53915079834328], [-58.440888304029635, -34.540208860266794], [-58.440784519721525, -34.540304720119714], [-58.440601994054425, -34.540247896154284], [-58.44042482269977, -34.54030250696246], [-58.44032121710047, -34.54020947962583], [-58.44031882463068, -34.53927115845757], [-58.44025715920719, -34.539209149983634], [-58.44017719260881, -34.539260298318275], [-58.44021450104488, -34.53983867822916], [-58.43923700376901, -34.54013637384451], [-58.43819908473052, -34.53994946765607], [-58.43740215276143, -34.54000050886235], [-58.43763881830286, -34.539852040787906], [-58.43756043932938, -34.5398024158173], [-58.43734983434896, -34.540008480832235], [-58.43639193976266, -34.54028461632217], [-58.435888548156896, -34.54061234862643], [-58.43525800465213, -34.54125658006791], [-58.434944154182155, -34.54190938533122], [-58.43420302443965, -34.54186596482963], [-58.434205851154246, -34.542026061468626], [-58.434920928280626, -34.5420020722926], [-58.434624119666594, -34.54258212160814], [-58.43418440525512, -34.542923452569305], [-58.43311809470994, -34.54340097459083], [-58.43187689030702, -34.54419976188775], [-58.431296531880584, -34.54484563680223], [-58.43049998844495, -34.54637353963206], [-58.43004895936123, -34.54687689740354], [-58.42997757650827, -34.54693055762627], [-58.429533314177036, -34.54662043541108], [-58.429495996518405, -34.54665800086476], [-58.42993052725654, -34.546969462546755], [-58.42975954872197, -34.54725017791817], [-58.42973242274401, -34.54756323969351], [-58.42981828374901, -34.54780750578844], [-58.43004200882397, -34.54804107350716], [-58.42963204866005, -34.54863059155689], [-58.42807022934368, -34.548088497614174], [-58.42706028990311, -34.548040483749205], [-58.426555225840715, -34.54823265688841], [-58.42577755237648, -34.54873254202404], [-58.42570124653233, -34.548571528152245], [-58.425913435681615, -34.54839958890156], [-58.42567886728883, -34.548558319203316], [-58.42573082935103, -34.5487216108521], [-58.425274723013736, -34.548971933651885], [-58.42514947120681, -34.54892020502903], [-58.42521195332394, -34.5491339252828], [-58.42495282906074, -34.549092653333446], [-58.424743215242046, -34.54935092068855], [-58.4247729199089, -34.54941635214925], [-58.42512707340257, -34.54933202975143], [-58.42526887405787, -34.549585934051315], [-58.42543371492382, -34.54970229120595], [-58.425730785916656, -34.55032193564078], [-58.425625310839614, -34.55043373574652], [-58.42570903159686, -34.550608220409714], [-58.425857672863465, -34.55068654890124], [-58.425973808958915, -34.5509147229577], [-58.426068434468036, -34.550885675373394], [-58.42647082917234, -34.5517580915964], [-58.42669533178922, -34.55205414353826], [-58.429401564156706, -34.550956446287785], [-58.42976220444741, -34.55094233664208], [-58.43098714459271, -34.55112501627761], [-58.43168355732801, -34.55142047811737], [-58.4344261987988, -34.55305621010804], [-58.434633385043654, -34.55331621675238], [-58.43465660855799, -34.55359987138236], [-58.43411372952909, -34.5539635506837], [-58.43598521801039, -34.55486569871285], [-58.43770175306095, -34.55615349440089], [-58.43881459168942, -34.55651119512737], [-58.44016179630621, -34.557110204081724], [-58.44106131376859, -34.55790250180212], [-58.44138828018455, -34.55882208848241], [-58.44096101122446, -34.55991985273797], [-58.44033066344391, -34.560562003501744], [-58.43924358388997, -34.56129216198463], [-58.43798307694817, -34.56176290332876], [-58.43655308016808, -34.56193464408221], [-58.434960847039065, -34.56179829631029], [-58.434861490176466, -34.56209525140676], [-58.435405433619195, -34.562543094594], [-58.436430168109744, -34.562583803062644], [-58.438435805905556, -34.56248159593368], [-58.44116517463695, -34.56214001582999], [-58.44253792836607, -34.5636951427871], [-58.44262451863038, -34.563632269365975], [-58.44785691346942, -34.56671888363027], [-58.44904676119445, -34.567859827048814]]]}, "properties": {"comuna": 13, "poblacion": 230767, "varones": 103560, "mujeres": 127207, "area_km2": 14.85, "densidad": 15544, "poblacion_2022": 264385, "pct_0_14": 13.3, "pct_15_64": 66.5, "pct_65": 20.2, "pct_80": 6.1, "hab_0_14": 35135, "hab_15_64": 175844, "hab_65": 53406, "envejecimiento": 152.0, "dependencia": 51.0}}, {"type": "Feature", "geometry": {"type": "Polygon", "coordinates": [[[-58.39865464064717, -34.567364020855976], [-58.400190826728426, -34.56901765878398], [-58.39992623801226, -34.569187162138874], [-58.397411755019775, -34.56663039236553], [-58.39715494193151, -34.566616913261896], [-58.396541857572444, -34.56688007211733], [-58.39575158241312, -34.56779240988887], [-58.39579929236577, -34.56781377666412], [-58.39524770359259, -34.56862409487589], [-58.395212081415536, -34.5689622579415], [-58.394919878835836, -34.569257663466075], [-58.394736486470336, -34.56915835045919], [-58.39456645369645, -34.56923459487597], [-58.392844035532704, -34.57223854015185], [-58.39482489558856, -34.572315065434594], [-58.39521040516281, -34.57219633516644], [-58.39934418719556, -34.569875777642594], [-58.4001310817211, -34.56935463624212], [-58.3997022573878, -34.570023478706126], [-58.399634041448884, -34.57040908342116], [-58.39972018078614, -34.57081264566095], [-58.40203200094389, -34.57352293352119], [-58.402650681613316, -34.574146009020055], [-58.401656336739215, -34.575323111404266], [-58.40114888534915, -34.57574233895357], [-58.399944927450534, -34.576495369692026], [-58.39858627930136, -34.577177208383134], [-58.39656419598135, -34.578512233282034], [-58.398113720474804, -34.58070759154796], [-58.39936593960408, -34.58272047345798], [-58.39927933340058, -34.58273585143911], [-58.40054799256822, -34.584477245354066], [-58.40113089032275, -34.583947252663485], [-58.401947330422416, -34.58343181108031], [-58.40617642820399, -34.58346470960735], [-58.41008489098123, -34.589062491173905], [-58.414397287745764, -34.59405930920153], [-58.41600403600113, -34.597859933549024], [-58.42337046439579, -34.59775309579909], [-58.42695332660271, -34.596215770667236], [-58.429351798650025, -34.59475073487385], [-58.444788089964234, -34.584519157278116], [-58.444402238746825, -34.583197455104525], [-58.44445103343923, -34.583176475673376], [-58.44343418819475, -34.581802697597084], [-58.43994155146995, -34.5785526522915], [-58.44089118052464, -34.57780218157721], [-58.441816755510914, -34.576823667235594], [-58.44397422558434, -34.575370125943124], [-58.44074720899485, -34.57211211395189], [-58.44364228945086, -34.570569765836325], [-58.44904676119445, -34.567859827048814], [-58.44785691346942, -34.56671888363027], [-58.44262451863038, -34.563632269365975], [-58.44253792836607, -34.5636951427871], [-58.44116517463695, -34.56214001582999], [-58.438435805905556, -34.56248159593368], [-58.436430168109744, -34.562583803062644], [-58.435405433619195, -34.562543094594], [-58.434861490176466, -34.56209525140676], [-58.434960847039065, -34.56179829631029], [-58.43655308016808, -34.56193464408221], [-58.43798307694817, -34.56176290332876], [-58.43924358388997, -34.56129216198463], [-58.44033066344391, -34.560562003501744], [-58.44096101122446, -34.55991985273797], [-58.44138828018455, -34.55882208848241], [-58.44106131376859, -34.55790250180212], [-58.44016179630621, -34.557110204081724], [-58.43881459168942, -34.55651119512737], [-58.43770175306095, -34.55615349440089], [-58.43598521801039, -34.55486569871285], [-58.43411372952909, -34.5539635506837], [-58.43465660855799, -34.55359987138236], [-58.434633385043654, -34.55331621675238], [-58.4344261987988, -34.55305621010804], [-58.43168355732801, -34.55142047811737], [-58.43098714459271, -34.55112501627761], [-58.42976220444776, -34.55094233574065], [-58.429401564156706, -34.55095644628778], [-58.426761606207826, -34.55203002024557], [-58.4265005421999, -34.55180954354172], [-58.426081008448016, -34.55196746796463], [-58.42602010589908, -34.55185829178647], [-58.425668022697465, -34.55197218736329], [-58.424323232237285, -34.549364839056665], [-58.42473112308554, -34.54910598922469], [-58.42472319775072, -34.54902163720871], [-58.42418071379557, -34.54927451314631], [-58.425704542147976, -34.55216363570151], [-58.42288697804703, -34.5530243859248], [-58.42283328328588, -34.552876050549], [-58.42231795861908, -34.55298916851394], [-58.422379282509866, -34.55313703792715], [-58.42040353560577, -34.55361714220687], [-58.41813707494871, -34.55391773792604], [-58.416077928503086, -34.55432900290282], [-58.41595928518177, -34.55421945485207], [-58.41587186701431, -34.55438649630261], [-58.414182408561246, -34.55488592554819], [-58.414055575661855, -34.55478427457651], [-58.41405139587492, -34.554931028274616], [-58.41258699454617, -34.55552083695869], [-58.411180473334376, -34.556252892534054], [-58.41108357194754, -34.55629236218451], [-58.41094240325543, -34.55620763518065], [-58.41097437264238, -34.556360048669596], [-58.41017047975179, -34.556735364757614], [-58.40982446707337, -34.556573541637256], [-58.4095669480299, -34.556604879424484], [-58.409389792301674, -34.55685581860023], [-58.409482144445825, -34.557104304829586], [-58.409435791979014, -34.55713952754788], [-58.40952571267121, -34.55721823816359], [-58.409329045592386, -34.55761183271796], [-58.409252988256554, -34.558119798212836], [-58.409066027072015, -34.55815964967938], [-58.40922561196577, -34.55825341807971], [-58.40921045859479, -34.558475802083706], [-58.40897562350599, -34.55869357297782], [-58.40878320133662, -34.5587358204612], [-58.406592845437274, -34.56102859365857], [-58.40482368941713, -34.562666825442975], [-58.40475651667457, -34.56292781160494], [-58.404432050536215, -34.5628274041791], [-58.40391075999524, -34.563484736075736], [-58.40366929349583, -34.5633532334679], [-58.403737133327084, -34.56326376201774], [-58.40340052621344, -34.56307862343556], [-58.403328000741425, -34.56316966088391], [-58.398789758489, -34.56075319053227], [-58.398695647466596, -34.56092009336874], [-58.39883281724119, -34.56099171673532], [-58.398880142690885, -34.560932592708475], [-58.40328960780808, -34.56321809646609], [-58.4032228803758, -34.563307109388674], [-58.40356419254642, -34.563492943052886], [-58.40363619438738, -34.56340279131663], [-58.403936053308804, -34.56356643305699], [-58.40338122284385, -34.56388023113579], [-58.402605003947706, -34.56396129888846], [-58.402163243706234, -34.563871161043664], [-58.401598297684465, -34.563481798073205], [-58.40111744027096, -34.563338177498586], [-58.4009433305612, -34.56341850055363], [-58.400876340649575, -34.56355775222872], [-58.400958091763016, -34.56372665395184], [-58.40089578782794, -34.56376859890344], [-58.40110581234354, -34.56404145105726], [-58.40089375385157, -34.56425241843173], [-58.400713525195606, -34.564305989054326], [-58.40033464296819, -34.56399454748351], [-58.399813103429786, -34.56372016132618], [-58.399516808935424, -34.56361888201507], [-58.39921117582483, -34.56366546818596], [-58.39850286621569, -34.563982780837335], [-58.39787624229934, -34.56453863557888], [-58.39737894362132, -34.56487418046316], [-58.39703979420499, -34.56500660495255], [-58.39684012852724, -34.56520683957503], [-58.396750855306934, -34.565561225899714], [-58.39694661912953, -34.56591908735736], [-58.397503476426955, -34.566241078433], [-58.39768943566337, -34.56654782515557], [-58.39865464064717, -34.567364020855976]]]}, "properties": {"comuna": 14, "poblacion": 226534, "varones": 100862, "mujeres": 125672, "area_km2": 15.92, "densidad": 14227, "poblacion_2022": 248635, "pct_0_14": 11.9, "pct_15_64": 69.0, "pct_65": 19.1, "pct_80": 5.7, "hab_0_14": 29681, "hab_15_64": 171465, "hab_65": 47489, "envejecimiento": 160.0, "dependencia": 45.0}}, {"type": "Feature", "geometry": {"type": "Polygon", "coordinates": [[[-58.42349481677904, -34.64020460971672], [-58.43234695414734, -34.64174550061151], [-58.432110074021494, -34.645167863527476], [-58.43262063815403, -34.64522017690079], [-58.43492550133184, -34.64624102483316], [-58.43450482866842, -34.646679450475276], [-58.430432458920855, -34.649878374808424], [-58.436023519428716, -34.654374785250404], [-58.43800770262315, -34.65580743858055], [-58.4429536405165, -34.65190175551869], [-58.44320672978553, -34.65157876647846], [-58.44332595519617, -34.65119399460118], [-58.444408154941804, -34.65106980065697], [-58.44462216107317, -34.6509521566124], [-58.44882995498072, -34.65117920902863], [-58.45197634999113, -34.65108263970347], [-58.454637785811585, -34.65082722194171], [-58.45486204281281, -34.651994569916], [-58.455063296518226, -34.65230345885079], [-58.46040313335783, -34.65681049338793], [-58.463940058605964, -34.653961352098804], [-58.46542779937023, -34.65290062446608], [-58.46703464979254, -34.65147244740454], [-58.46388658433841, -34.647558316121575], [-58.46335859841593, -34.646832076800386], [-58.46300023686061, -34.64617448926002], [-58.465086748719706, -34.6447163428072], [-58.469243330807224, -34.64140132363981], [-58.47348469854357, -34.63179651465907], [-58.47780801107838, -34.62238921186758], [-58.46863640888795, -34.61756665932689], [-58.46453994984254, -34.61579273275089], [-58.459449971836904, -34.61389068145688], [-58.45457663154294, -34.62448464608356], [-58.45157819570984, -34.63064368852886], [-58.426758704696695, -34.62700303506082], [-58.42580560577983, -34.631288566164734], [-58.42349481677904, -34.64020460971672]]]}, "properties": {"comuna": 7, "poblacion": 220591, "varones": 102481, "mujeres": 118110, "area_km2": 12.42, "densidad": 17757, "poblacion_2022": 215896, "pct_0_14": 15.6, "pct_15_64": 66.6, "pct_65": 17.8, "pct_80": 4.8, "hab_0_14": 33710, "hab_15_64": 143756, "hab_65": 38429, "envejecimiento": 114.0, "dependencia": 50.0}}, {"type": "Feature", "geometry": {"type": "Polygon", "coordinates": [[[-58.40098968689109, -34.66005037824767], [-58.40187759454251, -34.65960847095894], [-58.40241132844519, -34.65945841715467], [-58.40334153499704, -34.65935469817821], [-58.40542889255607, -34.659677718734535], [-58.40640529916394, -34.660008047818934], [-58.407232234297105, -34.6600048531827], [-58.40764936362008, -34.65982998258415], [-58.40836946508142, -34.65983150440912], [-58.409249447558814, -34.65947510290109], [-58.41013200075018, -34.65889074846985], [-58.41046278014047, -34.658875374426835], [-58.41119224137499, -34.65856745356647], [-58.41174556009157, -34.65855157420882], [-58.41236289215352, -34.658385949214335], [-58.413515864512746, -34.65844366520443], [-58.414558284750264, -34.658611743014845], [-58.415957199152, -34.659069400182396], [-58.41639876755241, -34.65913038831439], [-58.416891616228234, -34.65937831600569], [-58.41770831737229, -34.65960281379519], [-58.41790175214055, -34.65950748667189], [-58.418101381537966, -34.65968554224041], [-58.420026974944314, -34.66017063344226], [-58.421849549928275, -34.6608611841811], [-58.42404389143818, -34.6620516470974], [-58.42674830161659, -34.658677947377946], [-58.43443587935198, -34.653117109717876], [-58.430432458920855, -34.649878374808424], [-58.434504828668395, -34.646679450475276], [-58.43492550133184, -34.64624102483313], [-58.43262063815402, -34.64522017690079], [-58.43211007402147, -34.64516786352747], [-58.43234695414734, -34.64174550061151], [-58.43092623623345, -34.641448862356704], [-58.411263904263684, -34.63810357718933], [-58.41051545634473, -34.63571372558299], [-58.41049206922788, -34.63524181008535], [-58.41088376935537, -34.63451281727809], [-58.411524050933046, -34.63286110190784], [-58.411782811125846, -34.63036027048347], [-58.40836812467837, -34.6295203914632], [-58.398598161218764, -34.628410376997714], [-58.39216377407576, -34.62726797946864], [-58.391174186861434, -34.62725739800159], [-58.39035697026888, -34.634128602067136], [-58.388561248812636, -34.63371624330622], [-58.383396204704034, -34.632224785746125], [-58.38133730586496, -34.63084939427818], [-58.38125494654824, -34.63307428321226], [-58.38014808978827, -34.633035934618114], [-58.380096943264526, -34.632636386186185], [-58.379514867131, -34.632215631575356], [-58.378626122498254, -34.63050324041974], [-58.379049190418385, -34.629337746977214], [-58.377724275744605, -34.62847688551346], [-58.37456562467141, -34.62680369522484], [-58.37096872656504, -34.62665144696798], [-58.37066323406008, -34.629497850761126], [-58.36944974577509, -34.628327418264334], [-58.36809663225007, -34.627193681217115], [-58.36795049636793, -34.62714666538916], [-58.36797657673252, -34.6251997631352], [-58.363201122687805, -34.62513957573468], [-58.35601620755281, -34.617610896798965], [-58.355145559185225, -34.61955481729848], [-58.35425512483615, -34.61946832939839], [-58.354079318004544, -34.619705660875645], [-58.3535230866013, -34.61940937356785], [-58.35309082367113, -34.61954148249532], [-58.35293614285678, -34.61975546842589], [-58.35269850298577, -34.619775295350834], [-58.352570996819516, -34.61954285426077], [-58.35221965822539, -34.61963756153665], [-58.351923270152184, -34.61962439469222], [-58.3514693332924, -34.619364231504], [-58.35123099637744, -34.61935718133558], [-58.35087336397576, -34.61947497240739], [-58.35088039543056, -34.61961831892896], [-58.35077676797017, -34.61967595746911], [-58.35068782650023, -34.619558415997616], [-58.350165015600595, -34.61974108887015], [-58.34957810566923, -34.619794673355266], [-58.34907318066083, -34.61964777240772], [-58.34832126514011, -34.61905822218196], [-58.347854052363495, -34.61896959149909], [-58.34729532399051, -34.61893966438857], [-58.34656868881185, -34.61910695248077], [-58.345974708625555, -34.618858610517904], [-58.345202645522804, -34.61882006994019], [-58.34460125127602, -34.61900324051163], [-58.344582754576024, -34.619337743610714], [-58.344681577702026, -34.61963167256537], [-58.34519826639904, -34.61983633083844], [-58.345452083830686, -34.6198766443726], [-58.346243244240256, -34.61935021215356], [-58.346339028179955, -34.61921019557378], [-58.346567516110056, -34.619281805910056], [-58.347156703355886, -34.61999361125477], [-58.34710512690904, -34.62055209747526], [-58.34697243676792, -34.62099292073353], [-58.34645868588963, -34.62162394833626], [-58.34651766481343, -34.621994660029316], [-58.346067530051386, -34.622684097377096], [-58.34604309496527, -34.622906749488074], [-58.34593849276325, -34.622959824469206], [-58.34598209293414, -34.62231190337484], [-58.34587268502644, -34.622279777915224], [-58.34606893205936, -34.62227175925602], [-58.3460826484714, -34.622188574210725], [-58.34599026681297, -34.622118778709016], [-58.34609807082344, -34.62201267359303], [-58.345812409097285, -34.621881933785055], [-58.345756352108886, -34.622114618844186], [-58.34571678888938, -34.62183579178359], [-58.34548549103092, -34.62152672547246], [-58.34504094440895, -34.62133805296619], [-58.34470984164492, -34.62134526468765], [-58.34434211527012, -34.62147297479711], [-58.34406346950288, -34.62176295323084], [-58.344084976075756, -34.62152907956172], [-58.34416971101719, -34.62149415755292], [-58.34427153733736, -34.62121740154071], [-58.344224334870916, -34.62084694180161], [-58.34435052103233, -34.620525351265414], [-58.344302544100856, -34.62018186301306], [-58.34405297712205, -34.619493924153545], [-58.34392442799342, -34.619349853542865], [-58.343943895227156, -34.619199591735686], [-58.34378856992695, -34.61883046679264], [-58.343302673155954, -34.61866713798352], [-58.34232372783995, -34.618509805555654], [-58.34142015229888, -34.618496307017956], [-58.34039462665553, -34.618690151386595], [-58.33974315618008, -34.61848755109922], [-58.339177512320695, -34.61850313842631], [-58.33865525409783, -34.618620999197816], [-58.33807004511606, -34.61896534584431], [-58.337519497412416, -34.62001417248539], [-58.33741769324427, -34.62092100284878], [-58.337009387488415, -34.6214922875271], [-58.3369374798655, -34.621763363355676], [-58.33697870753059, -34.622200200089424], [-58.33728348953829, -34.62258351358135], [-58.33759888850551, -34.622746899269714], [-58.33796243374806, -34.62281289390173], [-58.33952495496019, -34.6225891158411], [-58.340345535046346, -34.62266462461375], [-58.341078064868164, -34.62262371073035], [-58.341904247116894, -34.62282720703148], [-58.342016146793085, -34.62271623654979], [-58.34192111265545, -34.622356732070145], [-58.342135963349875, -34.62224681396011], [-58.34264972236134, -34.622428037751895], [-58.34303756808641, -34.6227144408106], [-58.34237750571072, -34.623377718966225], [-58.34220171289315, -34.62329120853155], [-58.34215116036262, -34.623136610160834], [-58.34189049390277, -34.62303904288859], [-58.34068802365424, -34.623028299543165], [-58.340052998369714, -34.62324135613475], [-58.33843856701386, -34.62457094040713], [-58.338213545671984, -34.62462361679749], [-58.33824078306472, -34.62470313177134], [-58.337027693970654, -34.62489012336847], [-58.33516771962465, -34.62642918110419], [-58.33516734644974, -34.627111030208006], [-58.33626185057914, -34.628028123506006], [-58.33620430212133, -34.62818317588059], [-58.336383131166194, -34.62821913754379], [-58.33643921422338, -34.62806876912976], [-58.33698547292165, -34.62822213172403], [-58.336925889915285, -34.628377795292415], [-58.33816451298454, -34.62871617359316], [-58.33822440392371, -34.62856030692284], [-58.338796589706334, -34.628724026341594], [-58.3387341659041, -34.62888176565135], [-58.338884003825555, -34.62892350186905], [-58.33895163139431, -34.62875902879142], [-58.33928395026459, -34.6288971019111], [-58.33930749504178, -34.62882885519293], [-58.3391250556552, -34.62879319251163], [-58.33923023602501, -34.628658437572234], [-58.339450986356695, -34.62861532987308], [-58.33975445734154, -34.627834157274215], [-58.340267921673856, -34.62797328274399], [-58.34055642993645, -34.62773730553732], [-58.340668546727684, -34.627833567119225], [-58.34078527501743, -34.62772087290155], [-58.34067577342607, -34.62762815392144], [-58.34107414852302, -34.62730264258708], [-58.34118803842203, -34.62739369708359], [-58.34130706657031, -34.62728601383759], [-58.341203612984444, -34.627200527137916], [-58.341601881298615, -34.62686990561096], [-58.34169846990617, -34.62694678921392], [-58.341771237571876, -34.62691224188404], [-58.34173543738653, -34.626770465473136], [-58.34212899045927, -34.62643631205249], [-58.342221186094, -34.626511363709085], [-58.34235745464682, -34.62641893409922], [-58.342258341064564, -34.62632968465819], [-58.34245139746347, -34.626173520638005], [-58.3427403194654, -34.62620231568441], [-58.3427447526082, -34.62631810358889], [-58.34290522432211, -34.62631370902054], [-58.34291727419847, -34.626225855203934], [-58.343332675272656, -34.62626859775083], [-58.34332678704221, -34.62635027844917], [-58.34344621119269, -34.62640029293703], [-58.34350142460928, -34.62629142164099], [-58.34427755070371, -34.626378637317856], [-58.344384770685856, -34.626454943253606], [-58.34382570639595, -34.62690218167186], [-58.34371660664879, -34.62681658339529], [-58.343581278009644, -34.626930908175225], [-58.34367870820672, -34.62701612464496], [-58.34333116777884, -34.62731143663276], [-58.343216631985264, -34.627218312039744], [-58.34308708042657, -34.627315970228466], [-58.34320868582986, -34.62741959891159], [-58.34282613208386, -34.627736340419126], [-58.34272379116522, -34.62765213612486], [-58.342599139008236, -34.627750490918835], [-58.34269899824602, -34.62783754584953], [-58.34232275749488, -34.62814245367646], [-58.3422089330713, -34.62804455584914], [-58.3420897634858, -34.6281505694945], [-58.34220070511503, -34.628246676156714], [-58.34181905782012, -34.62856174322459], [-58.34165005519831, -34.628513129906636], [-58.341589942941255, -34.62858151998236], [-58.34169113073696, -34.628665302201966], [-58.34140572889935, -34.628897793970914], [-58.341563569256, -34.62908350478684], [-58.34201071521003, -34.629279639857174], [-58.342038591859044, -34.62920662752151], [-58.342385618620554, -34.6293040609956], [-58.34235842304751, -34.629405396620555], [-58.34251414819408, -34.62945980994724], [-58.342550366037344, -34.62935490549456], [-58.342851824358895, -34.629435097082826], [-58.34318917955291, -34.62914339032915], [-58.34332582283825, -34.629225450134875], [-58.34340917761563, -34.62912314459112], [-58.34331985397592, -34.629046346132775], [-58.3436942329548, -34.62874881065163], [-58.34378353178776, -34.62882391595318], [-58.343916215182766, -34.62871745326664], [-58.34382393123603, -34.628638864763815], [-58.3442058140766, -34.62832561521681], [-58.34431820125673, -34.628421601476084], [-58.34440756916273, -34.62835287710266], [-58.34431376174394, -34.628219301005934], [-58.34458192964244, -34.62800329058017], [-58.345378383885944, -34.62866941572975], [-58.34705532849174, -34.62728622339437], [-58.3487642174777, -34.62868932729414], [-58.348774505598534, -34.62875799973574], [-58.348431990251875, -34.628792009949635], [-58.34844128997503, -34.628953377861194], [-58.34877966345608, -34.62892396276655], [-58.34878983592159, -34.62908795549464], [-58.348690212233265, -34.629351239000385], [-58.34848505446356, -34.62939586363308], [-58.34844483424371, -34.62986324497394], [-58.347966704990654, -34.62994161645267], [-58.34791125851745, -34.63013463139213], [-58.348271400843934, -34.63009204155963], [-58.34831523154125, -34.630277641456864], [-58.348140485720805, -34.6304230807386], [-58.347931785530314, -34.631157571954176], [-58.34784777926583, -34.63117692882484], [-58.34776042471304, -34.630911806001556], [-58.347693470236344, -34.63092934723848], [-58.34776646621883, -34.63119258065962], [-58.34757529892401, -34.63139753855066], [-58.346854896801844, -34.63151189627845], [-58.34674019282909, -34.63142838038905], [-58.34615200810572, -34.63154286024381], [-58.346103125871046, -34.63166360858981], [-58.347588152937305, -34.63207606996066], [-58.347701242812875, -34.632237182004175], [-58.3485309600809, -34.63248158343733], [-58.349068544070306, -34.632552176398356], [-58.3501496862953, -34.6323259910874], [-58.35114419263471, -34.63135986700236], [-58.352076362928045, -34.62923833513091], [-58.35238763509846, -34.629014982278306], [-58.35299393252348, -34.629165859691234], [-58.35397275743996, -34.628093404004005], [-58.36029977336375, -34.6239487989111], [-58.36035045673959, -34.62400303316989], [-58.36052450280676, -34.62389194760479], [-58.360864398350266, -34.62424271400308], [-58.36177270069494, -34.623643256692006], [-58.36191855215737, -34.62379607468305], [-58.36102407931241, -34.62439800102565], [-58.36126764071202, -34.62468892683844], [-58.35584729248603, -34.62819216145565], [-58.35469455582074, -34.62923314779472], [-58.35406870906092, -34.63011639185287], [-58.35379252944802, -34.630675219511105], [-58.35276622900298, -34.63356686204232], [-58.35325206376397, -34.63511462659427], [-58.35351211655083, -34.63571588141785], [-58.35414355928804, -34.63652162500736], [-58.35604899174639, -34.63754218829327], [-58.356968742862364, -34.638573315179094], [-58.35803214647837, -34.63920578608744], [-58.36035911561576, -34.63919250782274], [-58.36112758674849, -34.639399218677674], [-58.36144408440404, -34.63987110613076], [-58.36090809671489, -34.64072676724534], [-58.35848645955345, -34.641558521510326], [-58.35813070810187, -34.64187269937199], [-58.357479768196754, -34.64346439503295], [-58.357327682180724, -34.64404736158589], [-58.35760360074182, -34.64498371366716], [-58.358752142180464, -34.64538474911726], [-58.35981916193726, -34.64597475388048], [-58.36088870162854, -34.64687480120044], [-58.361826891878515, -34.64784174384772], [-58.36239907199249, -34.64814933953355], [-58.36392317575567, -34.64810081588088], [-58.36433859585319, -34.648227559122326], [-58.364976151086516, -34.64879290769269], [-58.368642625986816, -34.65067347549641], [-58.3696618484966, -34.65133795769121], [-58.37001717285527, -34.652106460449914], [-58.36967610712589, -34.65323568373368], [-58.36979205642941, -34.6535823682468], [-58.370317890359544, -34.65398498583178], [-58.37180176435438, -34.654651524062366], [-58.37241716690687, -34.65500707996154], [-58.372839438759236, -34.65536624417959], [-58.37363080455895, -34.656399712037086], [-58.374123909021634, -34.656768650021675], [-58.37510734026501, -34.65694871688271], [-58.37637740576352, -34.65682560881355], [-58.37661842507194, -34.656946160593925], [-58.377385947374165, -34.65693042374112], [-58.37763707442007, -34.65712503319717], [-58.37925447031481, -34.65745648091747], [-58.38152441299306, -34.657541498963155], [-58.382048312348445, -34.657492957433135], [-58.38241624802204, -34.65755521121034], [-58.382818921737524, -34.65751016270096], [-58.38303531383777, -34.65758901047087], [-58.383414400058115, -34.65752653997066], [-58.38355058457986, -34.65760354494336], [-58.38412724549895, -34.65761393726163], [-58.385178826856205, -34.65785043527689], [-58.385607073086376, -34.65806315316334], [-58.38644654115373, -34.65870983914374], [-58.38691024515562, -34.65941018264923], [-58.3877200353282, -34.66016482233656], [-58.38796589063213, -34.660230801098315], [-58.3880194849851, -34.66033243429376], [-58.388874816653136, -34.66053186795852], [-58.389044733215805, -34.6605059775071], [-58.38918991281258, -34.6606365228698], [-58.38948258074743, -34.660645286374184], [-58.39022856996834, -34.660858659459464], [-58.390628665550544, -34.661072411823525], [-58.390743007672775, -34.661023826146206], [-58.3910664809878, -34.66145760966095], [-58.391590837591, -34.66190725198096], [-58.39233877266157, -34.66216240728076], [-58.39318379781518, -34.66229740953414], [-58.394823764506846, -34.66212155741555], [-58.39557539517723, -34.66186218819551], [-58.39597892264223, -34.66184953318792], [-58.39642353379234, -34.66202985767439], [-58.39721249431744, -34.66198741397117], [-58.39760014768148, -34.66176115515821], [-58.397879682217415, -34.66124982020721], [-58.399196594657106, -34.66090065239124], [-58.39981027295585, -34.660911132425746], [-58.39999998374822, -34.660760167723936], [-58.40072857535488, -34.66050267651023], [-58.40098968689109, -34.66005037824767]], [[-58.40636970865051, -34.64765942983579], [-58.405927853285824, -34.647587951102], [-58.4090115304858, -34.648086750677166], [-58.40636970865051, -34.64765942983579]], [[-58.40152784429683, -34.64686234498235], [-58.401544989597404, -34.64678697100351], [-58.40108756192721, -34.64673503691882], [-58.40154498959743, -34.64678697100351], [-58.40154538658591, -34.64678701627533], [-58.40152784429683, -34.64686234498235]], [[-58.40108756192721, -34.64673503691882], [-58.400606352895565, -34.646556911472445], [-58.40046944364046, -34.646479221030596], [-58.40108756192721, -34.64673503691882]], [[-58.40033647746207, -34.64636272293054], [-58.40035624017177, -34.646313575343854], [-58.40049628278122, -34.645922446757915], [-58.400356240171774, -34.646313575343875], [-58.40033647746207, -34.64636272293054]], [[-58.391404444742484, -34.64209028207305], [-58.39147548673337, -34.64083059494042], [-58.39140444474249, -34.64209028207305], [-58.39296214730065, -34.64275238658332], [-58.391404444742484, -34.64209028207305]], [[-58.389971237397766, -34.63910595199659], [-58.39011104349486, -34.63727017582978], [-58.39016845901276, -34.63651590652489], [-58.389971237397766, -34.63910595199659]], [[-58.39016845901276, -34.63651590652489], [-58.39025310158333, -34.63540369352198], [-58.390286716888305, -34.63496237086287], [-58.39033529772887, -34.63436021094738], [-58.39016845901276, -34.63651590652489]], [[-58.37053839287331, -34.630814050943734], [-58.37053502114718, -34.630852797008366], [-58.370589244793116, -34.63023048754467], [-58.37053839287331, -34.630814050943734]], [[-58.3702353007932, -34.633757229648864], [-58.37011111742918, -34.63456207137272], [-58.3702506110171, -34.633643742377394], [-58.3702353007932, -34.633757229648864]], [[-58.40103995182547, -34.659975945177294], [-58.40104000306236, -34.6599758696563], [-58.4010485445759, -34.65998708766771], [-58.40103995182547, -34.659975945177294]]]}, "properties": {"comuna": 4, "poblacion": 218245, "varones": 103166, "mujeres": 115079, "area_km2": 21.69, "densidad": 10062, "poblacion_2022": 229240, "pct_0_14": 18.8, "pct_15_64": 67.5, "pct_65": 13.7, "pct_80": 3.5, "hab_0_14": 43022, "hab_15_64": 154812, "hab_65": 31406, "envejecimiento": 73.0, "dependencia": 48.0}}, {"type": "Feature", "geometry": {"type": "Polygon", "coordinates": [[[-58.377724275744605, -34.628476885513464], [-58.379049190418385, -34.629337746977214], [-58.37862612249827, -34.63050324041974], [-58.379514867131, -34.63221563157536], [-58.38009694326454, -34.632636386186185], [-58.380148089788285, -34.63303593461811], [-58.38125494654825, -34.63307428321226], [-58.381337305864974, -34.63084939427818], [-58.383396204704034, -34.632224785746125], [-58.388561248812636, -34.63371624330622], [-58.39035697026888, -34.634128602067136], [-58.391174186861434, -34.62725739800159], [-58.39143573140748, -34.6239929392602], [-58.39170141710722, -34.61816380098751], [-58.39166476202498, -34.61551621048598], [-58.39181098256765, -34.61128469148097], [-58.392391551116624, -34.603160338101695], [-58.39293533370779, -34.599642149302134], [-58.38686820376445, -34.59929786043728], [-58.38727517074097, -34.59475198684766], [-58.387571305345595, -34.5928355903143], [-58.387954728857004, -34.59165341346785], [-58.38692224385791, -34.59078036312371], [-58.38369087887974, -34.587505583241736], [-58.38450398753848, -34.58696612905157], [-58.38533010754322, -34.58538877054289], [-58.38696844658319, -34.58355674501224], [-58.38839673729451, -34.582490075306005], [-58.391174906991395, -34.581012426482694], [-58.39164933888169, -34.58083641962399], [-58.389869341696375, -34.578207133668116], [-58.386585286178644, -34.57812019857278], [-58.385291305801196, -34.57825178429954], [-58.38410320191672, -34.57818953925412], [-58.383576291204996, -34.5782407460442], [-58.382861911212935, -34.57845408463024], [-58.379841464837774, -34.58016729947033], [-58.37616540459724, -34.579955854036996], [-58.375126880746755, -34.5805254281304], [-58.37397717440912, -34.57910768707074], [-58.37671626106816, -34.57755069258156], [-58.376046345176654, -34.57748950091275], [-58.37603264525647, -34.577728188581474], [-58.37428889158243, -34.57870957317203], [-58.36795553859234, -34.578211416651854], [-58.36532103559171, -34.57971019325498], [-58.3652514541213, -34.58015608946327], [-58.37059568035109, -34.5805902904291], [-58.37056365412354, -34.58083540230601], [-58.36897528910064, -34.58173392430387], [-58.36162502808646, -34.581152385208505], [-58.361417757287526, -34.58296893642792], [-58.36610964672991, -34.58334017362031], [-58.36614851142907, -34.58356375333382], [-58.36494652313515, -34.584504548357486], [-58.35992042240929, -34.5841233530128], [-58.359729103818744, -34.58592406871261], [-58.36364863874599, -34.58624596742896], [-58.3635275354698, -34.58746271693558], [-58.35960762309352, -34.58718936741614], [-58.359461950233104, -34.58808498390018], [-58.35964486425478, -34.58812058337775], [-58.359684270075206, -34.58826220617178], [-58.359802098737156, -34.58834023603896], [-58.360850264696154, -34.58856520357075], [-58.36074617289418, -34.588941116180024], [-58.36089451782915, -34.588568967197965], [-58.36799692103641, -34.59001338072157], [-58.367911996067114, -34.590434415268675], [-58.367491450104474, -34.59065673742628], [-58.366893875456455, -34.590719869451725], [-58.366524697310574, -34.59097630894694], [-58.36437192235354, -34.59426982427037], [-58.36444155903822, -34.59439317281751], [-58.36464216963892, -34.594494937245145], [-58.36483299645317, -34.594461910900385], [-58.36590338125743, -34.59283423299478], [-58.3661595880161, -34.592859458912365], [-58.367089402500184, -34.59140365964746], [-58.36724434993338, -34.59139965949867], [-58.36728025697937, -34.591551830886694], [-58.366388721545, -34.59299041504882], [-58.36692979538528, -34.59320400395767], [-58.36765740783945, -34.59198381235681], [-58.3678749988485, -34.59195878341], [-58.36793241491002, -34.59209217583462], [-58.367153854179, -34.593308098547325], [-58.36908365639814, -34.59416162876315], [-58.3679135315109, -34.59747857900049], [-58.36649790025221, -34.597418775285895], [-58.3663773075089, -34.598226844381266], [-58.366093909072035, -34.59820853822204], [-58.36615974297177, -34.597388831731905], [-58.36383556620315, -34.59720284206335], [-58.36441049459098, -34.59550952550862], [-58.364345258345914, -34.595382744310704], [-58.36410568928949, -34.59531635472929], [-58.36387161920977, -34.595420706733634], [-58.36302834143234, -34.59523157442815], [-58.36148309785111, -34.595132896250064], [-58.361245076454395, -34.59528039892109], [-58.36151212387825, -34.595172265828246], [-58.36303655265061, -34.595285327624595], [-58.36384791399487, -34.59548607637648], [-58.36342174838141, -34.59666429173523], [-58.36248748216361, -34.596506111655316], [-58.36033448322039, -34.5954709880062], [-58.36037788217586, -34.59508221202916], [-58.36110346649097, -34.59510585148152], [-58.35414917509483, -34.59466946306939], [-58.35096485791215, -34.59515023880387], [-58.35095382926796, -34.59520174585432], [-58.35411744927475, -34.59470716193262], [-58.35668501814477, -34.59486327259191], [-58.356852738786486, -34.59494150475394], [-58.355937112463614, -34.59512559611926], [-58.35544208107028, -34.59531620889799], [-58.35491503188452, -34.59579782542223], [-58.353442385181246, -34.59669698000774], [-58.3530525666311, -34.59704484159514], [-58.35281548040499, -34.597488240522566], [-58.3523880196584, -34.59794339097962], [-58.35211100706017, -34.59804092425822], [-58.3515304937063, -34.59863426343967], [-58.350497054921455, -34.59929634713673], [-58.34973739110232, -34.60011370363008], [-58.34935061232916, -34.60032560986396], [-58.34877882264922, -34.60084023800477], [-58.34800412339784, -34.60128840023487], [-58.34736269403995, -34.601822062351204], [-58.34703330924113, -34.602233164040285], [-58.34682437429104, -34.60233872017849], [-58.346751425989424, -34.60272486571837], [-58.34666037563306, -34.60281803256431], [-58.346727892160146, -34.603053975632406], [-58.34658890312136, -34.60344021539725], [-58.346631955560866, -34.60359289784838], [-58.346481002790476, -34.604282022476795], [-58.34632167241209, -34.60477318312329], [-58.346083612135814, -34.604998126042254], [-58.34617365980116, -34.6054193798747], [-58.346115136664544, -34.60601319244762], [-58.34588051566514, -34.60670939113965], [-58.34562625088957, -34.607014427658875], [-58.34400383270256, -34.60794777771781], [-58.34141316092575, -34.609931395236714], [-58.34086724732706, -34.61066835461807], [-58.33998269815521, -34.61387530453055], [-58.339851151763966, -34.61504621202226], [-58.33987707464778, -34.61609972445709], [-58.33998642805592, -34.616281095150285], [-58.340718261518056, -34.616899073261], [-58.34125530587002, -34.61703687814791], [-58.34263634034159, -34.617084346575915], [-58.34349348734085, -34.617386486191556], [-58.344862487949804, -34.61773245468687], [-58.34553216292245, -34.61750839961845], [-58.34618544312165, -34.6175539710945], [-58.34717908191375, -34.617360960462996], [-58.34781402464586, -34.6170509225495], [-58.34829884134812, -34.61693213087515], [-58.349172896827994, -34.616985631468445], [-58.34948591298834, -34.61707924426092], [-58.35016623891, -34.617507344526686], [-58.35022783767676, -34.61773016635317], [-58.35014385637094, -34.61790167751658], [-58.350227567751034, -34.61821127715191], [-58.350051250117836, -34.61823756595272], [-58.349927098544335, -34.61816652607361], [-58.34979982038545, -34.61822021253063], [-58.34986766040566, -34.61836701765487], [-58.35010712202843, -34.61848463279688], [-58.350121794170526, -34.61857269162194], [-58.34997793938646, -34.61864608502925], [-58.34997367686602, -34.618721740780664], [-58.35025463186218, -34.61878314381273], [-58.35053601065746, -34.61853149815511], [-58.350728266000246, -34.61855613302088], [-58.35040279203193, -34.61884613877444], [-58.35037570948102, -34.61893978016405], [-58.350446616253834, -34.6190083256855], [-58.35057380873174, -34.61902746683282], [-58.35068305524135, -34.61917485059254], [-58.351224318057554, -34.61922891859672], [-58.35127133932558, -34.61935665770833], [-58.3514693332924, -34.619364231504], [-58.351923270152184, -34.61962439469222], [-58.35221965822539, -34.61963756153665], [-58.352570996819516, -34.61954285426077], [-58.35269850298577, -34.619775295350834], [-58.35291985095277, -34.61975768289463], [-58.35309082367113, -34.61954148249532], [-58.3535230866013, -34.61940937356785], [-58.354079318004544, -34.619705660875645], [-58.35425512483615, -34.61946832939839], [-58.355145559185225, -34.61955481729848], [-58.35601620755281, -34.617610896798965], [-58.363201122687805, -34.62513957573468], [-58.36797657673252, -34.6251997631352], [-58.36795049636793, -34.62714666538916], [-58.36809663225007, -34.627193681217115], [-58.36944974577509, -34.628327418264334], [-58.370663234060096, -34.62949785076114], [-58.37096872656504, -34.62665144696798], [-58.37456562467141, -34.62680369522484], [-58.377724275744605, -34.628476885513464]], [[-58.364495982826746, -34.6123952475193], [-58.36453975878165, -34.612098333511746], [-58.36474874780906, -34.61211647773018], [-58.36474121331211, -34.61242433008273], [-58.36547574874055, -34.612534123815834], [-58.364896522546566, -34.61756952984974], [-58.36416403006327, -34.6175536000479], [-58.364099601852246, -34.61786169699354], [-58.36388827477905, -34.617846528051786], [-58.36389199692048, -34.617533076010716], [-58.363198542546925, -34.617476958093526], [-58.36316607070141, -34.617418401379624], [-58.36373779648621, -34.6123841404094], [-58.364495982826746, -34.6123952475193]], [[-58.36527120052387, -34.605479794579495], [-58.365326259681936, -34.60518769358565], [-58.36554884954629, -34.60520440238107], [-58.365550781992326, -34.60551272154517], [-58.36626580455901, -34.605606497437165], [-58.3655653631564, -34.611737202229904], [-58.364837536059035, -34.61171731669459], [-58.36476474180638, -34.61201975834134], [-58.364548756990935, -34.61200328693237], [-58.36455425507008, -34.611698602316494], [-58.36382174989848, -34.61159949192246], [-58.36453151859355, -34.605466681817916], [-58.36527120052387, -34.605479794579495]], [[-58.3659603786254, -34.599158422648955], [-58.36603490501047, -34.598737821687656], [-58.36630699561782, -34.59873823838467], [-58.36628162634699, -34.59919069881006], [-58.366985670431625, -34.599306351940626], [-58.36634530091575, -34.60488580762253], [-58.36563018772063, -34.60485973787393], [-58.3655555441987, -34.605110530126964], [-58.365337172551115, -34.60509282144868], [-58.365338868937116, -34.604833747116864], [-58.36461543108752, -34.604732855781556], [-58.36525193228371, -34.599164174420224], [-58.3659603786254, -34.599158422648955]], [[-58.36382448172436, -34.61823077906085], [-58.363876252549595, -34.617940821142774], [-58.36408812174787, -34.61795691630389], [-58.36409479739479, -34.618265263935406], [-58.36480792941908, -34.61834669728862], [-58.36426062839485, -34.62341250799765], [-58.36267385256431, -34.62331446732033], [-58.362048833533336, -34.623720380809274], [-58.36191577320818, -34.623585840849806], [-58.362535703569755, -34.62316586620733], [-58.36307828695246, -34.61821828760405], [-58.36382448172436, -34.61823077906085]]]}, "properties": {"comuna": 1, "poblacion": 205886, "varones": 98097, "mujeres": 107789, "area_km2": 17.38, "densidad": 11846, "poblacion_2022": 223554, "pct_0_14": 15.6, "pct_15_64": 70.4, "pct_65": 14.0, "pct_80": 3.7, "hab_0_14": 34775, "hab_15_64": 157481, "hab_65": 31298, "envejecimiento": 90.0, "dependencia": 42.0}}, {"type": "Feature", "geometry": {"type": "Polygon", "coordinates": [[[-58.48956005633142, -34.58530838473017], [-58.50347172005461, -34.593959253914015], [-58.51451630813752, -34.58175028280111], [-58.5149702127839, -34.58132249506749], [-58.51553576857417, -34.58127414707185], [-58.500551668790834, -34.549495920968496], [-58.475954554668476, -34.53863739298881], [-58.47043250710375, -34.54607263202276], [-58.46819097058801, -34.54894654457668], [-58.47443734115173, -34.55242741425036], [-58.47087360351467, -34.557036526429535], [-58.46703884337077, -34.56132137710532], [-58.46768555987636, -34.561693617501696], [-58.46649186218607, -34.56219648199534], [-58.46765055842208, -34.563054352418995], [-58.47065128779516, -34.56501108137426], [-58.473369827681005, -34.56666768335336], [-58.46808280219982, -34.57291482378605], [-58.47865631576918, -34.57893428064965], [-58.48956005633142, -34.58530838473017]]]}, "properties": {"comuna": 12, "poblacion": 200116, "varones": 92527, "mujeres": 107589, "area_km2": 15.57, "densidad": 12852, "poblacion_2022": 236887, "pct_0_14": 14.4, "pct_15_64": 67.6, "pct_65": 18.0, "pct_80": 4.9, "hab_0_14": 34112, "hab_15_64": 160136, "hab_65": 42640, "envejecimiento": 125.0, "dependencia": 48.0}}, {"type": "Feature", "geometry": {"type": "Polygon", "coordinates": [[[-58.46863640888795, -34.61756665932689], [-58.479376809868015, -34.62319733484265], [-58.4827431937344, -34.62463474854925], [-58.49557308272516, -34.61439626909074], [-58.500192416685685, -34.60913108464406], [-58.513046049005155, -34.616736904702016], [-58.51694927550722, -34.62022036334769], [-58.52505931336877, -34.61396792747937], [-58.5251130050647, -34.614006633413766], [-58.52561317802312, -34.6136678532898], [-58.52946768490281, -34.61090106159128], [-58.51553576857417, -34.58127414707185], [-58.5149702127839, -34.58132249506749], [-58.51451630813752, -34.58175028280111], [-58.50308343148194, -34.59438790964244], [-58.50354366270087, -34.59445578824524], [-58.49717523922212, -34.596822971770784], [-58.483456873969345, -34.59776357440074], [-58.482844411895826, -34.597949032705834], [-58.478832163758454, -34.59967637826255], [-58.47639330823987, -34.60020498085559], [-58.477499708181476, -34.60083050287424], [-58.47638257781589, -34.60237107368214], [-58.47401769558466, -34.605316418353674], [-58.471610807868615, -34.60382637096152], [-58.46891355826054, -34.60186572269597], [-58.45847564360012, -34.604497063269704], [-58.46270615195231, -34.60737818546292], [-58.459449971836904, -34.61389068145688], [-58.46453994984254, -34.61579273275089], [-58.46863640888795, -34.61756665932689]]]}, "properties": {"comuna": 11, "poblacion": 189832, "varones": 88469, "mujeres": 101363, "area_km2": 14.12, "densidad": 13444, "poblacion_2022": 204601, "pct_0_14": 14.2, "pct_15_64": 66.3, "pct_65": 19.5, "pct_80": 5.3, "hab_0_14": 29122, "hab_15_64": 135582, "hab_65": 39897, "envejecimiento": 137.0, "dependencia": 51.0}}, {"type": "Feature", "geometry": {"type": "Polygon", "coordinates": [[[-58.39117490656021, -34.62725740570006], [-58.39216377407576, -34.62726797946864], [-58.398598161218764, -34.628410376997714], [-58.40836812467837, -34.6295203914632], [-58.411782811125846, -34.63036027048347], [-58.412068696783834, -34.62514265841067], [-58.41233697069864, -34.62303746480651], [-58.4120454070184, -34.622979384112405], [-58.412359916674454, -34.62187316459169], [-58.41244032418157, -34.62188798772624], [-58.412638844488875, -34.61958776094854], [-58.412873597839415, -34.614121027871846], [-58.413317540373455, -34.612859574479046], [-58.41447055478863, -34.61074128013696], [-58.414663514494634, -34.608194983540926], [-58.41410247688072, -34.607911937702106], [-58.413911824862225, -34.60725128835602], [-58.412303652383585, -34.600357213455844], [-58.41192253140976, -34.5980082151563], [-58.41029791226502, -34.59809787350611], [-58.404510717536766, -34.59804106689294], [-58.402012342973116, -34.59937478850392], [-58.39872726394246, -34.59976535365024], [-58.39293533370779, -34.599642149302134], [-58.392391551116624, -34.603160338101695], [-58.39181098256765, -34.61128469148097], [-58.39166476202498, -34.61551621048598], [-58.39170141710722, -34.61816380098751], [-58.39161486777132, -34.62054406071828], [-58.39117490656021, -34.62725740570006]]]}, "properties": {"comuna": 3, "poblacion": 187537, "varones": 85601, "mujeres": 101936, "area_km2": 6.39, "densidad": 29367, "poblacion_2022": 196240, "pct_0_14": 14.0, "pct_15_64": 70.0, "pct_65": 16.0, "pct_80": 4.3, "hab_0_14": 27542, "hab_15_64": 137299, "hab_65": 31398, "envejecimiento": 114.0, "dependencia": 43.0}}, {"type": "Feature", "geometry": {"type": "Polygon", "coordinates": [[[-58.432327594570644, -34.67067508614461], [-58.45376593316049, -34.696230508807844], [-58.45887537661203, -34.70223041290475], [-58.46103404160651, -34.704615586866936], [-58.4615856913617, -34.705355483937794], [-58.50252527504022, -34.674512432484036], [-58.49912702067697, -34.67263991821396], [-58.497039525153696, -34.67118424077124], [-58.495872835698606, -34.670199554601616], [-58.49360839696026, -34.66796625620081], [-58.4917615554893, -34.66601148082468], [-58.48895242145444, -34.663352443245614], [-58.485945451344016, -34.66245218909218], [-58.478818293732544, -34.65784856050759], [-58.47251602641475, -34.66277676243772], [-58.47057138882731, -34.658430914433694], [-58.46955682463585, -34.65910942700471], [-58.46765625455309, -34.65751952387692], [-58.46443135241803, -34.66005337230465], [-58.46158151873423, -34.65788256463881], [-58.45920172186271, -34.655771270843466], [-58.455063296518226, -34.65230345885079], [-58.45486204281281, -34.651994569916], [-58.454637785811585, -34.65082722194171], [-58.45197634999113, -34.65108263970347], [-58.44882995498072, -34.65117920902863], [-58.44462216107317, -34.6509521566124], [-58.444408154941804, -34.65106980065697], [-58.44332595519617, -34.65119399460118], [-58.44320672978553, -34.65157876647846], [-58.4429536405165, -34.65190175551869], [-58.43800770262315, -34.65580743858055], [-58.43443587935198, -34.653117109717876], [-58.42674830161659, -34.65867794737795], [-58.424043891438195, -34.6620516470974], [-58.424433695840406, -34.662394804770514], [-58.42577390515153, -34.66328083867108], [-58.427398015284574, -34.66488252103516], [-58.4291292930673, -34.667038188936814], [-58.43011743290352, -34.668082057691215], [-58.432327594570644, -34.67067508614461]]]}, "properties": {"comuna": 8, "poblacion": 187237, "varones": 89545, "mujeres": 97692, "area_km2": 22.23, "densidad": 8424, "poblacion_2022": 204367, "pct_0_14": 22.2, "pct_15_64": 66.7, "pct_65": 11.1, "pct_80": 2.8, "hab_0_14": 45369, "hab_15_64": 136313, "hab_65": 22685, "envejecimiento": 50.0, "dependencia": 50.0}}, {"type": "Feature", "geometry": {"type": "Polygon", "coordinates": [[[-58.42375620668038, -34.597832538504306], [-58.42678829291573, -34.5979494812089], [-58.42916476831594, -34.598964341781674], [-58.43027799996006, -34.599887407339935], [-58.432243441632785, -34.60213894439448], [-58.43920415657378, -34.605587963253505], [-58.44513371589389, -34.60718021194922], [-58.44624963503948, -34.60762073177344], [-58.46891355826054, -34.60186572269597], [-58.471610807868615, -34.60382637096152], [-58.47401769558466, -34.605316418353674], [-58.47638257781589, -34.60237107368214], [-58.477499708181476, -34.60083050287424], [-58.47639330823987, -34.60020498085559], [-58.478832163758454, -34.59967637826255], [-58.482844411895826, -34.597949032705834], [-58.483456873969345, -34.59776357440074], [-58.49717523922212, -34.596822971770784], [-58.50354366270087, -34.59445578824524], [-58.50308343148194, -34.59438790964244], [-58.50347172005461, -34.593959253914015], [-58.48879415727158, -34.58482403134742], [-58.47865631576918, -34.57893428064965], [-58.46736584353383, -34.57250216497175], [-58.463188835027395, -34.575111026455005], [-58.46022666634013, -34.578301110897925], [-58.45774560318248, -34.578443843297876], [-58.45540130883452, -34.57907626071817], [-58.45101979374113, -34.580481486818364], [-58.44828194510704, -34.58152986280973], [-58.444402238746825, -34.583197455104525], [-58.444788089964234, -34.584519157278116], [-58.444588211785494, -34.58467138375304], [-58.429351798650025, -34.59475073487385], [-58.42695332660271, -34.596215770667236], [-58.42337046439579, -34.59775309579909], [-58.42375620668038, -34.597832538504306]]]}, "properties": {"comuna": 15, "poblacion": 182574, "varones": 84485, "mujeres": 98089, "area_km2": 14.32, "densidad": 12747, "poblacion_2022": 196876, "pct_0_14": 14.1, "pct_15_64": 69.3, "pct_65": 16.6, "pct_80": 4.3, "hab_0_14": 27696, "hab_15_64": 136498, "hab_65": 32681, "envejecimiento": 118.0, "dependencia": 44.0}}, {"type": "Feature", "geometry": {"type": "Polygon", "coordinates": [[[-58.41178276811417, -34.63036105019175], [-58.411524050933046, -34.63286110190784], [-58.41088376935537, -34.63451281727809], [-58.41049206922788, -34.63524181008535], [-58.41051545634473, -34.63571372558299], [-58.41126390426369, -34.638103577189355], [-58.42349481677904, -34.64020460971672], [-58.42580560577983, -34.631288566164734], [-58.42724028754673, -34.624857167527544], [-58.429255350056906, -34.61511051469348], [-58.43003137426665, -34.61545404367607], [-58.430671988778066, -34.60594640975917], [-58.43333687771966, -34.60267859363733], [-58.432243441632785, -34.60213894439448], [-58.43027799996006, -34.599887407339935], [-58.42916476831594, -34.598964341781674], [-58.42678829291573, -34.5979494812089], [-58.42630587453738, -34.597887222471456], [-58.42375620668038, -34.597832538504306], [-58.42284263479575, -34.59771800262326], [-58.41192253140976, -34.5980082151563], [-58.412303652383585, -34.600357213455844], [-58.413911824862225, -34.60725128835602], [-58.41410247688072, -34.607911937702106], [-58.414663514494634, -34.608194983540926], [-58.41447055478863, -34.61074128013696], [-58.413317540373455, -34.612859574479046], [-58.412873597839415, -34.614121027871846], [-58.412638844488875, -34.61958776094854], [-58.41244032418157, -34.62188798772624], [-58.412359916674454, -34.62187316459169], [-58.4120454070184, -34.622979384112405], [-58.41233697069864, -34.62303746480651], [-58.412068696783834, -34.62514265841067], [-58.41178276811417, -34.63036105019175]]]}, "properties": {"comuna": 5, "poblacion": 179005, "varones": 80806, "mujeres": 98199, "area_km2": 6.66, "densidad": 26875, "poblacion_2022": 194271, "pct_0_14": 13.0, "pct_15_64": 69.0, "pct_65": 18.0, "pct_80": 4.9, "hab_0_14": 25340, "hab_15_64": 133963, "hab_65": 34969, "envejecimiento": 138.0, "dependencia": 45.0}}, {"type": "Feature", "geometry": {"type": "Polygon", "coordinates": [[[-58.429255350056906, -34.61511051469348], [-58.426758704696695, -34.62700303506082], [-58.45157819570984, -34.63064368852886], [-58.45457663154294, -34.62448464608356], [-58.459034681789504, -34.61473948113432], [-58.46270615195231, -34.60737818546292], [-58.45847564360012, -34.604497063269704], [-58.44624963503948, -34.60762073177344], [-58.44513371589389, -34.60718021194922], [-58.43920415657378, -34.605587963253505], [-58.43333687771966, -34.60267859363733], [-58.430671988778066, -34.60594640975917], [-58.43003137426665, -34.61545404367607], [-58.429255350056906, -34.61511051469348]]]}, "properties": {"comuna": 6, "poblacion": 176076, "varones": 78870, "mujeres": 97206, "area_km2": 6.85, "densidad": 25701, "poblacion_2022": 203043, "pct_0_14": 13.5, "pct_15_64": 66.7, "pct_65": 19.8, "pct_80": 5.5, "hab_0_14": 27349, "hab_15_64": 135492, "hab_65": 40203, "envejecimiento": 147.0, "dependencia": 50.0}}, {"type": "Feature", "geometry": {"type": "Polygon", "coordinates": [[[-58.47854619256344, -34.63699885547771], [-58.49530206457031, -34.644852439732254], [-58.497137425921906, -34.64341397409882], [-58.50229906905261, -34.645822663501455], [-58.50982153516652, -34.640013005499306], [-58.5105089194381, -34.63737563432314], [-58.50567176664867, -34.63672260169123], [-58.50681882923088, -34.635817173289944], [-58.506961156796464, -34.63589571517499], [-58.50765103216557, -34.635895889023416], [-58.50882986433573, -34.63555819755925], [-58.513322146500286, -34.63366972917707], [-58.514863194735256, -34.63320792677432], [-58.51708853355127, -34.63301908324975], [-58.51974561069824, -34.63298860899282], [-58.520172983538586, -34.632917155213484], [-58.520239890158365, -34.63280211033947], [-58.52074658179306, -34.63322429318182], [-58.520813210758384, -34.63340456779643], [-58.52068660950892, -34.63382592736448], [-58.52233611324916, -34.63401780182501], [-58.524299104116515, -34.63447558603445], [-58.52820521323532, -34.634847236168326], [-58.5303575257912, -34.63480022662671], [-58.53151730936994, -34.61549898106118], [-58.52946768490281, -34.61090106159128], [-58.52561317802312, -34.6136678532898], [-58.5251130050647, -34.614006633413766], [-58.52505931336877, -34.61396792747937], [-58.51694927550722, -34.62022036334769], [-58.513046049005155, -34.616736904702016], [-58.500192416685685, -34.60913108464406], [-58.49557308272516, -34.61439626909074], [-58.4827431937344, -34.62463474854925], [-58.479376809868015, -34.62319733484265], [-58.47780801107838, -34.62238921186758], [-58.47130386272256, -34.636659753938936], [-58.473493125850155, -34.63731290611635], [-58.476073061293455, -34.63893922752052], [-58.47854619256344, -34.63699885547771]]]}, "properties": {"comuna": 10, "poblacion": 166022, "varones": 76972, "mujeres": 89050, "area_km2": 12.66, "densidad": 13117, "poblacion_2022": 173004, "pct_0_14": 14.8, "pct_15_64": 66.0, "pct_65": 19.2, "pct_80": 5.2, "hab_0_14": 25551, "hab_15_64": 114236, "hab_65": 33217, "envejecimiento": 130.0, "dependencia": 52.0}}, {"type": "Feature", "geometry": {"type": "Polygon", "coordinates": [[[-58.4788510534524, -34.65787108345956], [-58.485945451344016, -34.66245218909218], [-58.48895242145444, -34.663352443245614], [-58.4917615554893, -34.66601148082468], [-58.49360839696026, -34.66796625620081], [-58.495872835698606, -34.670199554601616], [-58.497039525153696, -34.67118424077124], [-58.49912702067697, -34.67263991821396], [-58.50252527504022, -34.674512432484036], [-58.52920705002191, -34.65430347405725], [-58.5303575257912, -34.63480022662671], [-58.52820521323532, -34.634847236168326], [-58.524299104116515, -34.63447558603445], [-58.52233611324916, -34.63401780182501], [-58.52068660950892, -34.63382592736448], [-58.520813210758384, -34.63340456779643], [-58.52074658179306, -34.63322429318182], [-58.520239890158365, -34.63280211033947], [-58.520172983538586, -34.632917155213484], [-58.51974561069824, -34.63298860899282], [-58.51708853355127, -34.63301908324975], [-58.514863194735256, -34.63320792677432], [-58.513322146500286, -34.63366972917707], [-58.50882986433573, -34.63555819755925], [-58.50765103216557, -34.635895889023416], [-58.506961156796464, -34.63589571517499], [-58.50681882923088, -34.635817173289944], [-58.50567176664867, -34.63672260169123], [-58.5105089194381, -34.63737563432314], [-58.50982153516652, -34.640013005499306], [-58.50229906905261, -34.645822663501455], [-58.497137425921906, -34.64341397409882], [-58.49530206457031, -34.644852439732254], [-58.47854619256344, -34.63699885547771], [-58.476073061293455, -34.63893922752052], [-58.473493125850155, -34.63731290611635], [-58.47130386272256, -34.636659753938936], [-58.469243330807224, -34.64140132363981], [-58.465086748719706, -34.6447163428072], [-58.46300023686061, -34.64617448926002], [-58.46335859841593, -34.646832076800386], [-58.46388658433841, -34.647558316121575], [-58.46703464979254, -34.65147244740454], [-58.46542779937023, -34.65290062446608], [-58.463940058605964, -34.653961352098804], [-58.46040313335783, -34.65681049338793], [-58.46158151873423, -34.65788256463881], [-58.46443135241803, -34.66005337230465], [-58.46765625455309, -34.65751952387692], [-58.46955682463585, -34.65910942700471], [-58.47057138882731, -34.658430914433694], [-58.47251602641475, -34.66277676243772], [-58.4788510534524, -34.65787108345956]]]}, "properties": {"comuna": 9, "poblacion": 161797, "varones": 76207, "mujeres": 85590, "area_km2": 16.51, "densidad": 9803, "poblacion_2022": 169063, "pct_0_14": 16.3, "pct_15_64": 66.4, "pct_65": 17.3, "pct_80": 4.7, "hab_0_14": 27592, "hab_15_64": 112223, "hab_65": 29248, "envejecimiento": 106.0, "dependencia": 51.0}}, {"type": "Feature", "geometry": {"type": "Polygon", "coordinates": [[[-58.37074154419681, -34.57706754927851], [-58.37671626106816, -34.57755069258156], [-58.37397717440912, -34.57910768707074], [-58.375126880746755, -34.5805254281304], [-58.37616540459724, -34.579955854036996], [-58.379841464837774, -34.58016729947033], [-58.382861911212935, -34.57845408463024], [-58.38323547529595, -34.57832003138325], [-58.38392635318524, -34.578197452471684], [-58.385291305801196, -34.57825178429954], [-58.386585286178644, -34.57812019857278], [-58.389869341696375, -34.578207133668116], [-58.39164933888169, -34.58083641962399], [-58.391174906991395, -34.581012426482694], [-58.38839673729451, -34.582490075306005], [-58.38696844658319, -34.58355674501224], [-58.38533010754322, -34.58538877054289], [-58.38450398753848, -34.58696612905157], [-58.38369087887974, -34.587505583241736], [-58.38692224385791, -34.59078036312371], [-58.387954728857004, -34.59165341346785], [-58.387571305345595, -34.5928355903143], [-58.38727517074097, -34.59475198684766], [-58.38686820376445, -34.59929786043728], [-58.39293533370779, -34.599642149302134], [-58.39872726394246, -34.59976535365024], [-58.402012342973116, -34.59937478850392], [-58.404510717536766, -34.59804106689294], [-58.41029791226502, -34.59809787350611], [-58.41600403600113, -34.597859933549024], [-58.414397287745764, -34.59405930920153], [-58.41008489098123, -34.589062491173905], [-58.40617642820399, -34.58346470960735], [-58.401947330422416, -34.58343181108031], [-58.40113089032275, -34.583947252663485], [-58.40054799256822, -34.584477245354066], [-58.39927933340058, -34.58273585143911], [-58.39936593960408, -34.58272047345798], [-58.398113720474804, -34.58070759154796], [-58.39656419598135, -34.578512233282034], [-58.39858627930136, -34.577177208383134], [-58.399944927450534, -34.576495369692026], [-58.40114888534915, -34.57574233895357], [-58.401656336739215, -34.575323111404266], [-58.402650681613316, -34.574146009020055], [-58.40203200094389, -34.57352293352119], [-58.39972018078614, -34.57081264566095], [-58.399634041448884, -34.57040908342116], [-58.3997022573878, -34.570023478706126], [-58.4001310817211, -34.56935463624212], [-58.39934418719556, -34.569875777642594], [-58.39521040516281, -34.57219633516644], [-58.39482489558856, -34.572315065434594], [-58.392844035532704, -34.57223854015185], [-58.392988738896264, -34.57198170984933], [-58.38794483725291, -34.57487735658503], [-58.386648203813365, -34.573230796984284], [-58.39126553617799, -34.57061099020856], [-58.39125545971663, -34.57040732764561], [-58.39104957444135, -34.57007706925576], [-58.39068199901813, -34.56975579539412], [-58.3904950886105, -34.56942898897008], [-58.390320444344695, -34.569341592315716], [-58.39023217959457, -34.56938590053064], [-58.384285969762935, -34.56889937155141], [-58.383946677414066, -34.568758952547576], [-58.383690295128574, -34.56851184423384], [-58.3832305657687, -34.56839300050929], [-58.38146827466691, -34.56842771226113], [-58.38100035945013, -34.56858472011782], [-58.380748120597985, -34.56939738706401], [-58.38071177905449, -34.57011796206073], [-58.38035794268092, -34.570103317355645], [-58.38041032802914, -34.56856599469932], [-58.38028774694646, -34.56832602338943], [-58.38010293600549, -34.56822542682625], [-58.3681686748618, -34.56723723750758], [-58.368082716248196, -34.56731692160571], [-58.379785272678646, -34.568310417331524], [-58.37995514132869, -34.568361292045104], [-58.38022526064687, -34.56869666431475], [-58.38023422068042, -34.56984564966574], [-58.3800082486756, -34.569971511526106], [-58.38003022933984, -34.57037267398053], [-58.37910864138785, -34.57030248866287], [-58.37877614841892, -34.570355047329514], [-58.37656155782953, -34.57157364685413], [-58.37616391128904, -34.57165990605206], [-58.36176174534931, -34.570646552283726], [-58.36161843185904, -34.57066336625129], [-58.35985675432091, -34.5716485307181], [-58.35991659477749, -34.57181565623434], [-58.361645511421386, -34.57083949472865], [-58.3621041645752, -34.57074504955341], [-58.37614935554656, -34.57180581775957], [-58.37414935659501, -34.57307523256967], [-58.371222567730086, -34.574745118517924], [-58.37110635670389, -34.574840236691436], [-58.37117491294684, -34.574903083579144], [-58.374219820340606, -34.57313131936489], [-58.375953607118966, -34.572018448300604], [-58.37860181081757, -34.57052243047193], [-58.37919035216067, -34.57038660211805], [-58.38036111212539, -34.57047919907209], [-58.38033061383346, -34.570815133705885], [-58.380506938288235, -34.57104366498395], [-58.37830896726909, -34.572309975435594], [-58.378251823432564, -34.57268106363586], [-58.37830331199828, -34.57276029520051], [-58.383605189291885, -34.57322252565257], [-58.383567257467, -34.57343206533696], [-58.38181681635241, -34.57441578676828], [-58.375443919500846, -34.57393073573305], [-58.37074538598938, -34.57662683984114], [-58.37074154419681, -34.57706754927851]]]}, "properties": {"comuna": 2, "poblacion": 157932, "varones": 68042, "mujeres": 89890, "area_km2": 6.43, "densidad": 24549, "poblacion_2022": 161645, "pct_0_14": 11.1, "pct_15_64": 68.6, "pct_65": 20.3, "pct_80": 6.4, "hab_0_14": 17931, "hab_15_64": 110900, "hab_65": 32814, "envejecimiento": 183.0, "dependencia": 46.0}}]}